Gage_no,Gage_name,Gage_type,Lat_nwis,Long_nwis,SqKm_nwis,Lat_snap,Long_snap,COMID,COMID_meas,REACHCODE,REACH_meas,NHDPlusReg,State,Pass,CHECKED,QC_notes1,REVIEWED,Rev_notes2,Ver_notes3,Gage_info,QC_final,MovedCOMID
08166000,"Johnson Ck nr Ingram, TX",CrestStage,30.100207070000000,-99.283100599999997,295.258643000000006,30.100554047199999,-99.283025933399998,3585554,51.306363027400003,12100201000077,51.306363027400003,12,TX,1, , ,MJS 10/30/2017,okay, , ,OK, 
08076180,"Garners Bayou nr Humble, TX",CrestStage,29.933860889999998,-95.233960800000006,80.289631000000000,29.933918594000001,-95.233889763799993,1438379,81.659100139200007,12040104000895,81.659100139200007,12,TX,1, , , , , , ,AutoRef, 
08210400,"Lagarto Ck nr George West, TX",CrestStage,28.059735329999999,-98.096948200000000,401.448154999999986,28.059363975699998,-98.096770701500006,3168874,9.950077303450000,12110111000076,9.950077303450000,12,TX,1, , , , , , ,AutoRef, 
08074710,"Buffalo Bayou at Turning Basin, Houston, TX",CrestStage,29.749394769999999,-95.291047300000002,1204.344466999999895,29.748806374699999,-95.290541957599999,1440525,46.996352818399998,12040104000892,25.228535123600000,12,TX,1, , ,MJS 10/30/2017,okay, , ,OK, 
08070500,"Caney Ck nr Splendora, TX",ContGage,30.259657890000000,-95.302436099999994,271.948751000000016,30.259587493900000,-95.302519827699996,1520249,62.421060413399999,12040103000096,62.421060413399999,12,TX,1, , , , , , ,AutoRef, 
08189700,"Aransas Rv nr Skidmore, TX",ContGage,28.282504260000000,-97.620829000000001,639.727061000000049,28.282667377599999,-97.620888074299998,5297631,44.172850399799998,12100407000011,44.172850399799998,12,TX,1, , , , , , ,AutoRef, 
08111500,"Brazos Rv nr Hempstead, TX",CrestStage,30.129106260000000,-96.187738699999997,113648.677827999999863,30.129357880099999,-96.187150226900002,3121538,75.287085340000004,12070104000675,90.695679068299995,12,TX,1, , ,MJS 10/27/2017,okay, , ,OK, 
08178565,"San Antonio Rv at Loop 410, San Antonio, TX",ContGage,29.322181270000002,-98.450293200000004,323.748513000000003,29.322214570800000,-98.449787872499996,10840502,30.161596684599999,12100301000038,35.323122606900000,12,TX,1, , ,MJS 10/30/2017,okay, , ,OK, 
08071280,"Luce Bayou abv Lk Houston nr Huffman, TX",ContGage,30.109660190000000,-95.059929400000001,564.617405999999960,30.109625930899998,-95.059878401000006,1520091,85.242446008399995,12040103000002,88.181463061499997,12,TX,1, , ,MJS 10/30/2017,okay, , ,OK, 
08073700,"Buffalo Bayou at Piney Point, TX",CrestStage,29.746895899999998,-95.523553800000002,774.406441999999970,29.746826968299999,-95.523568892499995,1439377,76.966519554200005,12040104000056,88.688504211300000,12,TX,1, , , , , , ,AutoRef, 
08181800,"San Antonio Rv nr Elmendorf, TX",ContGage,29.222185300000000,-98.355846299999996,4514.349258000000191,29.222098412400001,-98.355925175400003,10840572,65.145729891399995,12100301000002,65.145729891399995,12,TX,1, , , , , , ,AutoRef, 
08164600,"Garcitas Ck nr Inez, TX",ContGage,28.891375900000000,-96.819148600000005,237.501909000000012,28.891258539399999,-96.819171617999999,9349285,48.743565332999999,12100402000028,48.743565332999999,12,TX,1, , ,MJS 10/30/2017,okay, , ,OK, 
08178050,"San Antonio Rv at Mitchell St, San Antonio, TX",CrestStage,29.393011890000000,-98.494739199999998,109.815494999999999,29.393056947900000,-98.494857961799994,10840818,10.341427890100000,12100301000190,10.341427890100000,12,TX,1, , ,MJS 10/30/2017,okay, , ,OK, 
08160800,"Redgate Ck nr Columbus, TX",ContGage,29.799119670000000,-96.532193300000003,44.806793999999996,29.799016373699999,-96.532137345699994,5791670,56.160645967900003,12090301000402,56.160645967900003,12,TX,1, , , , , , ,AutoRef, 
08187900,"Escondido Ck SWS No. 11 nr Kenedy, TX",CrestStage,28.861089600000000,-97.844445600000000,21.833600000000001,28.860955542500001,-97.844473860700006,3840019,93.300476716899993,12100303000281,93.300476716899993,12,TX,1, , , , , , ,AutoRef, 
08156800,"Shoal Ck at W 12th St, Austin, TX",CrestStage,30.276597039999999,-97.750283400000001,31.856853999999998,30.276437793900001,-97.750269405599994,5781703,20.346101778700000,12090205000365,20.346101778700000,12,TX,1, , ,MJS 10/30/2017,okay, , ,OK, 
08075760,"Hunting Bayou at Falls St, Houston, TX",CrestStage,29.806337599999999,-95.330770099999995,7.122467000000000,29.806374771400002,-95.330777591399993,1439055,95.465415391099995,12040104000113,95.465415391099995,12,TX,0,SEJ 9/20/17,Okay., , , , ,OK, 
08166140,"Guadalupe Rv abv Bear Ck at Kerrville, TX",ContGage,30.069653779999999,-99.195320300000006,1279.454120999999986,30.068976574800001,-99.195555465400005,3585626,45.969777529600002,12100201000067,45.969777529600002,12,TX,1, , ,MJS 10/30/2017,okay, , ,OK, 
08158600,"Walnut Ck at Webberville Rd, Austin, TX",CrestStage,30.283264200000001,-97.655002999999994,132.866389999999996,30.283208377000001,-97.654867195899996,5781285,67.201241138300006,12090205000004,67.201241138300006,12,TX,1, , ,MJS 10/30/2017,okay, , ,OK, 
08210000,"Nueces Rv nr Three Rivers, TX",ContGage,28.427495449999999,-98.178062499999996,39955.746419000002788,28.428186517899999,-98.178434607599996,3168766,80.427106672400001,12110111000061,80.427106672400001,12,TX,1, , , , , , ,AutoRef, 
08067500,"Cedar Bayou nr Crosby, TX",CrestStage,29.972719139999999,-94.985760200000001,168.090227999999996,29.972497808200000,-94.986101992499997,1558738,73.557687795099994,12040203000016,62.318189857100002,12,TX,0,SEJ 9/6/17,Okay., , , , ,OK, 
08150700,"Llano Rv nr Mason, TX",CrestStage,30.660736849999999,-99.109218499999997,8409.691360999999233,30.661221957199999,-99.109286025299994,5769807,88.853153951699994,12090204000126,88.853153951699994,12,TX,1, , , , , , ,AutoRef, 
08162000,"Colorado Rv at Wharton, TX",CrestStage,29.309136680000002,-96.103848200000002,108787.270164000001387,29.308715376999999,-96.103765018399997,3764246,72.850629100600003,12090302000407,46.875957132700002,12,TX,1, , , , , , ,AutoRef, 
08163500,"Lavaca Rv at Hallettsville, TX",CrestStage,29.443297300000001,-96.944981900000002,279.718714999999975,29.443285061499999,-96.945392525299994,7841703,75.567981501700004,12100101000041,75.567981501700004,12,TX,1, , , , , , ,AutoRef, 
08175800,"Guadalupe Rv at Cuero, TX",ContGage,29.090531469999998,-97.329712900000004,12779.001285000000280,29.066056191099999,-97.321370814600002,1637447,2.577645379470000,12100204000052,2.577645379470000,12,TX,1,SEJ 8/17/17,Okay. GageLoc is wrong. Some regulated flow.,MJS 10/25/2017,"gage on downstream  side of bridge, but on flow line. okay.",[LH]: looks wrong to me. Should be downstream of bridge over State Highway 183/77 (where NHDPlus GageLoc is). Move to 1637447,Some regulation,Move,1637437
08072800,"Langham Ck nr Addicks, TX",CrestStage,29.835782399999999,-95.625778299999993,126.650418000000002,29.835696949900001,-95.625568282800003,1440233,63.425823645999998,12040104000063,63.425823645999998,12,TX,1, , ,MJS 10/27/2017,okay, , ,OK, 
08192000,"Nueces Rv bl Uvalde, TX",CrestStage,29.123853069999999,-99.894782199999995,4819.967854000000443,29.124138093100001,-99.894281933800002,10892689,84.418504049700005,12110103000110,84.418504049700005,12,TX,1, , , , , , ,AutoRef, 
08066400,"Big Ck nr Shepherd, TX",CrestStage,30.516591699999999,-94.985211600000000,100.491538000000006,30.516889691199999,-94.985119774300003,1487698,80.351176838200004,12030202001967,80.148780258900004,12,TX,1, , , , , , ,AutoRef, 
08170500,"San Marcos Rv at San Marcos, TX",ContGage,29.889108040000000,-97.934171800000001,126.650418000000002,29.889101875800002,-97.934315214700007,1631099,85.758117488899998,12100203000131,85.758117488899998,12,TX,1, , ,MJS 10/30/2017,okay, , ,OK, 
08179100,"Red Bluff Ck nr Pipe Ck, TX",ContGage,29.681058600000000,-98.955586800000006,145.816329999999994,29.681220087300002,-98.955743290200004,10834936,50.280419999999999,12100302000061,50.280419999999999,12,TX,1, , , , , , ,AutoRef, 
08105100,"Berry Ck nr Georgetown, TX",CrestStage,30.691303040000001,-97.656120200000004,215.228011000000009,30.691633009299998,-97.655920662900002,5670841,30.388095759100000,12070205000041,30.388095759100000,12,TX,1, , ,MJS 10/30/2017,okay, , ,OK, 
08114500,"Brazos Rv nr Juliff, TX",ContGage,29.455516169999999,-95.532999599999997,117038.972250999999233,29.455377246000001,-95.533458587200002,3124640,87.176489801299994,12070104000658,87.176489801299994,12,TX,0,SEJ 9/6/17,Moved to Brazos river COMID 3124640.,MJS 10/26/2017,agree with move, , ,Move,1574084
08074150,"Cole Ck at Deihl Rd, Houston, TX",CrestStage,29.851336900000000,-95.487996499999994,19.424911000000002,29.851057320900001,-95.488001033800003,1440227,25.592396492999999,12040104000106,25.592396492999999,12,TX,1, , ,MJS 10/27/2017,okay, , ,OK, 
08177300,"Perdido Ck at FM 622 nr Fannin, TX",CrestStage,28.751656400000002,-97.317214199999995,72.519666999999998,28.752025022000002,-97.316836026100006,1639209,34.418289999999999,12100204000165,34.418289999999999,12,TX,1, , , , , , ,AutoRef, 
08183900,"Cibolo Ck nr Boerne, TX",ContGage,29.774988889999999,-98.709469400000003,177.155185999999986,29.773706395000001,-98.697901340200005,7850595,97.951207307000004,12100304000048,97.951207307000004,12,TX,1,SEJ 8/17/17 --> LH 7/11/2017,"Move to 7850595 based on description 0.6 mi upstream from Southern Pacific Lines railroad bridge, 0.9 mi downstream from Menger Creek.",MJS 10/26/2017,agree with move, , ,Move,7850579
08195000,"Frio Rv at Concan, TX",CrestStage,29.488564960000001,-99.704775600000005,1007.505370999999968,29.488519435000001,-99.704777385000000,10645755,25.665681140699999,12110106000090,25.665681140699999,12,TX,1, , ,MJS 10/30/2017,okay, , ,OK, 
08171300,"Blanco Rv nr Kyle, TX",CrestStage,29.979382970000000,-97.910005100000006,1067.075096999999914,29.979299628700002,-97.909625554300007,1631023,48.487965809899997,12100203000077,48.487965809899997,12,TX,1, , , , , , ,AutoRef, 
08075000,"Brays Bayou at Houston, TX",CrestStage,29.697174690000001,-95.412161999999995,245.789871000000005,29.697259902999999,-95.412146013200001,1440385,89.327035781700005,12040104000084,70.225003007400005,12,TX,0,SEJ 9/6/17,Okay., , , , ,OK, 
08117500,"San Bernard Rv nr Boling, TX",CrestStage,29.313579669999999,-95.893842100000001,1882.921348999999964,29.313655097600002,-95.893631902899997,1607520,89.446378224000000,12090401000018,89.446378224000000,12,TX,1, , , , , , ,AutoRef, 
08152000,"Sandy Ck nr Kingsland, TX",CrestStage,30.557689000000000,-98.472251099999994,896.135883000000035,30.557949750399999,-98.472309720799998,5757354,10.465995866200000,12090201000065,10.465995866200000,12,TX,1, , , , , , ,AutoRef, 
08161000,"Colorado Rv at Columbus, TX",CrestStage,29.706345400000000,-96.536915500000006,107847.104483999995864,29.706170271200001,-96.536459068699997,5791934,20.236563392299999,12090301000836,20.236563392299999,12,TX,1, , , , , , ,AutoRef, 
08176000,"Guadalupe Rv bl Cuero, TX",CrestStage,29.051645000000001,-97.264712399999993,12848.930963999999221,29.051665132600000,-97.264767333400002,1637621,95.822014966699996,12100204000049,95.822014966699996,12,TX,1, , , , , , ,AutoRef, 
08116650,"Brazos Rv nr Rosharon, TX",CrestStage,29.349685800000000,-95.582444800000005,117427.470465999998851,29.349664560299999,-95.582594326399999,3124642,14.661090542500000,12070104000656,50.216181745400000,12,TX,1, , , , , , ,AutoRef, 
08211800,"San Diego Ck at Alice, TX",ContGage,27.766638889999999,-98.075555600000001,826.206203999999957,27.766669250800000,-98.075547229999998,1653097,27.453644795199999,12110204000036,27.453644795199999,12,TX,1, , , , , , ,AutoRef, 
08158200,"Walnut Ck at Dessau Rd, Austin, TX",CrestStage,30.375205000000001,-97.660560099999998,67.857687999999996,30.375447238700001,-97.660410166299997,5781217,75.416760631200006,12090205000007,75.416760631200006,12,TX,1, , ,MJS 10/30/2017,okay, , ,OK, 
08067252,"Trinity Rv at Wallisville, TX",ContGage,29.812443399999999,-94.731308700000000,46091.428227999997034,29.812485275800000,-94.731269165100002,1515443,22.110614381700000,12030203000015,22.110614381700000,12,TX,1, , , , , , ,AutoRef, 
08194000,"Nueces Rv at Cotulla, TX",CrestStage,28.426378889999999,-99.240032200000002,13392.828465000000506,28.425941373200001,-99.240842150299997,10630401,23.758880599899999,12110103009248,23.758880599899999,12,TX,1, , , , , , ,AutoRef, 
08162600,"Tres Palacios Rv nr Midfield, TX",CrestStage,28.928037690000000,-96.171074700000005,375.548273999999992,28.928145764800000,-96.171220793900005,9355362,68.888774345200005,12100401000040,68.888774345200005,12,TX,0,SEJ 9/13/17,Okay., , , , ,OK, 
08072050,"San Jacinto Rv nr Sheldon, TX",CrestStage,29.876334260000000,-95.093818900000002,7456.575740000000224,29.876411696800002,-95.094014788799996,1440433,88.571945157800002,12040104000007,88.571945157800002,12,TX,1, , , , , , ,AutoRef, 
08207000,"Frio Rv at Calliham, TX",CrestStage,28.492213990000000,-98.346678299999994,14221.624657000000298,28.491628973299999,-98.346818302200006,10664520,60.790497767700003,12110108007007,60.790497767700003,12,TX,1, , , , , , ,AutoRef, 
08178880,"Medina Rv at Bandera, TX",ContGage,29.723835370000000,-99.070035000000004,849.516096999999945,29.722628822200001,-99.069092312600006,10833740,76.686555047599995,12100302000079,70.687166461199993,12,TX,1, , , , , , ,AutoRef, 
08165500,"Guadalupe Rv at Hunt, TX",ContGage,30.069930740000000,-99.321712199999993,745.916572999999971,30.069649686700000,-99.322680622899995,3586192,1.449071592590000,12100201000099,36.186039999999998,12,TX,1,"JAF, 12/21/2015 --> LH 7/11/2017",OK. Water-year summary says 0.6 mi downstream from confluence of North and South Forks,MJS 10/26/2017,okay, , ,OK, 
08188500,"San Antonio Rv at Goliad, TX",CrestStage,28.649286100000001,-97.384858300000005,10155.343339999999444,28.649772002500001,-97.384984787899995,3840125,42.425822058100003,12100303000055,42.425822058100003,12,TX,1, , , , , , ,AutoRef, 
08112500,"Brazos Rv Authority Canal A nr Fulshear, TX",ContGage,29.641346859999999,-95.885231000000005,0.000000000000000,29.641763507099999,-95.885624941100005,3123158,84.075695106200001,12040205006026,84.364878890599996,12,TX,1, , , , , , ,AutoRef, 
08164450,"Sandy Ck nr Ganado, TX",ContGage,29.160253900000001,-96.546360800000002,748.506561000000033,29.160116891700000,-96.546292710900005,7846335,33.368110511700003,12100102000034,33.368110511700003,12,TX,1, , , , , , ,AutoRef, 
08208000,"Atascosa Rv at Whitsett, TX",CrestStage,28.622208990000001,-98.281398800000005,3032.876064999999926,28.622518957400001,-98.281428397100001,10828654,74.763877281199996,12110110000030,74.763877281199996,12,TX,1, , , , , , ,AutoRef, 
08072730,"Bear Ck nr Barker, TX",ContGage,29.830782800000001,-95.686891200000005,55.684744000000002,29.830735900899999,-95.686469347499994,1440237,72.604458988800005,12040104000912,60.910233030199997,12,TX,0,SEJ 9/6/17,Okay., , , , ,OK, 
08073600,"Buffalo Bayou at W Belt Dr, Houston, TX",ContGage,29.762173359999998,-95.557721299999997,751.096548999999982,29.762436418200000,-95.557750936900007,1439357,98.774144867000004,12040104000057,99.203705467700004,12,TX,1, , ,MJS 10/27/2017,okay, , ,OK, 
08200700,"Hondo Ck at King Waterhole nr Hondo, TX",CrestStage,29.390788760000000,-99.151425200000006,388.498215000000016,29.390623755000000,-99.151865661399995,10655659,16.657509563900000,12110107000022,16.657509563900000,12,TX,1, , , , , , ,AutoRef, 
08041500,"Village Ck nr Kountze, TX",ContGage,30.397986199999998,-94.263521499999996,2227.389765999999781,30.398121286100000,-94.264104897500005,1166409,98.521230000000003,12020006000014,98.521230000000003,12,TX,1, , , , , , ,AutoRef, 
08075550,"Berry Bayou at Gilpin St, Houston, TX",CrestStage,29.642452790000000,-95.222989900000002,7.433266000000000,-9999.000000000000000,-9999.000000000000000,-9999,-9999.000000000000000,-9999,-9999.000000000000000,12,TX,0,SEJ 9/6/17,Drop. Uninitialized flowline., , ,Drop. NHDPlus is not representative. Uninitialized, ,Drop, 
08181500,"Medina Rv at San Antonio, TX",ContGage,29.264127599999998,-98.490849299999994,3411.014328000000205,29.264093978900000,-98.490841898300005,10836092,87.529141356099998,12100302000005,87.529141356099998,12,TX,1,SEJ 8/17/17,Moved to GageLoc location. COMID 10836420.,MJS 10/30/2017,"I do not agree with this move. the gage is currently located on pleasanton rd. the nwis location is correct and the gage was moved to this location. same COMID, move made to account for trib between locations.","Agree with reviewer, gage at orig. snap location",Some regulation and flow loss to seepage,OK, 
08041700,"Pine Island Bayou nr Sour Lake, TX",ContGage,30.106046400000000,-94.334632400000004,870.236001999999985,30.106323816300002,-94.335698117099994,1143252,70.148240336699999,12020007000030,70.148240336699999,12,TX,0,SEJ 9/6/17,Okay., , , , ,OK, 
08174600,"Peach Ck bl Dilworth, TX",ContGage,29.474127870000000,-97.316656499999993,1191.394526000000042,29.474118815200001,-97.316500088200002,1622763,85.205497275900001,12100202000017,85.205497275900001,12,TX,1, , , , , , ,AutoRef, 
08180500,"Medina Rv nr Riomedina, TX",ContGage,29.498000000000001,-98.905500000000004,1683.492265000000089,29.498123765799999,-98.905562623500003,10836370,62.258516005600001,12100302000054,59.581761380899998,12,TX,1, , , , , , ,AutoRef, 
08211900,"San Fernando Ck at Alice, TX",CrestStage,27.772525750000000,-98.033613000000003,1313.123966999999993,27.772386526199998,-98.033752990400004,1653465,32.989154642800003,12110204000010,32.989154642800003,12,TX,1, , , , , , ,AutoRef, 
08075500,"Sims Bayou at Houston, TX",CrestStage,29.674396869999999,-95.289380699999995,163.169250000000005,29.673947733599999,-95.289449183299993,1439685,48.677890297700003,12040104000667,48.677890297700003,12,TX,1, , ,MJS 10/27/2017,okay, , ,OK, 
08173900,"Guadalupe Rv at Gonzales, TX",CrestStage,29.484404139999999,-97.450270200000006,9039.058468999999604,29.484040282500001,-97.450448221700000,1622713,60.484235635499999,12100202000719,60.484235635499999,12,TX,1, , ,MJS 10/30/2017,okay, , ,OK, 
08170000,"San Marcos Spgs at San Marcos, TX",ContGage,29.889108040000000,-97.934171800000001,0.000000000000000,29.889101875800002,-97.934315214700007,1631099,85.758117488899998,12100203000131,85.758117488899998,12,TX,1, , ,MJS 10/30/2017,okay, , ,OK, 
08202700,"Seco Ck at Rowe Rh nr D'Hanis, TX",CrestStage,29.370789169999998,-99.287818500000000,435.118000999999992,29.371005174200000,-99.288225282599996,10655687,56.329750630600003,12110107000054,56.329750630600003,12,TX,1, , , , , , ,AutoRef, 
08109800,"E Yegua Ck nr Dime Box, TX",CrestStage,30.407431050000000,-96.817479100000000,631.957095999999979,30.406639985900000,-96.817983910899997,5570253,23.489274897100000,12070102000061,23.489274897100000,12,TX,1, , , , , , ,AutoRef, 
08158700,"Onion Ck nr Driftwood, TX",ContGage,30.082989240000000,-98.007785900000002,321.158524000000000,30.083233839700000,-98.007974556899995,5780099,31.760306514800000,12090205000390,81.413315846499998,12,TX,1, , , , , , ,AutoRef, 
08074598,"Whiteoak Bayou at Main St, Houston, TX",CrestStage,29.766616760000002,-95.358548999999996,328.928489000000013,29.766733259100000,-95.358410616200004,1439303,12.166892521599999,12040104000040,12.166892521599999,12,TX,1, , ,MJS 10/27/2017,okay, , ,OK, 
08178800,"Salado Ck at Loop 13, San Antonio, TX",ContGage,29.357180169999999,-98.412792499999995,489.507750999999985,29.357157022500001,-98.412901809199994,10840488,57.063327546399996,12100301000019,57.063327546399996,12,TX,1, , ,MJS 10/30/2017,okay, , ,OK, 
08178350,"Martinez Ck at Fredericksburg Rd, San Antonio, TX",CrestStage,29.456250000000001,-98.518027799999999,15.021931000000000,29.456494244600002,-98.518276675500005,10840812,0.170485547157000,12100301000184,0.170485547157000,12,TX,1, , ,MJS 10/30/2017,okay, , ,OK, 
08159500,"Colorado Rv at Smithville, TX",ContGage,30.012720739999999,-97.161932100000001,104560.409585000001243,30.012587394099999,-97.161922553200000,5790058,96.562726007300000,12090301000869,92.649270853399997,12,TX,1, , , , , , ,AutoRef, 
08067000,"Trinity Rv at Liberty, TX",CrestStage,30.057715389999998,-94.818256700000006,45241.912130999997316,30.057827527200001,-94.818359528399995,1513385,70.795787499799999,12030203000517,70.795787499799999,12,TX,1, , , , , , ,AutoRef, 
08074800,"Keegans Bayou at Roark Rd nr Houston, TX",CrestStage,29.656621359999999,-95.562166399999995,32.892848999999998,29.656228434100001,-95.561884010200004,1440395,12.507221017599999,12040104000088,5.989236623100000,12,TX,0,SEJ 9/20/17,Okay., , , , ,OK, 
08177500,"Coleto Ck nr Victoria, TX",CrestStage,28.731103170000001,-97.138600400000001,1294.994050000000016,28.729990242300001,-97.139700318699994,1638907,96.564457984300006,12100204000072,96.564457984300006,12,TX,0,SEJ 8/17/17,Moved to GageLoc location. COMID 1638907.,MJS 10/26/2017,agree with move, , ,Move,1638885
08110100,"Davidson Ck nr Lyons, TX",ContGage,30.419651959999999,-96.540246600000003,505.047680000000014,30.419666777100002,-96.540243062299993,5570225,80.298570367799996,12070102000014,80.298570367799996,12,TX,1, , , , , , ,AutoRef, 
08166200,"Guadalupe Rv at Kerrville, TX",ContGage,30.053266000000001,-99.163375000000002,1320.893931000000066,30.052629337199999,-99.163928323099995,3585724,91.300355420399995,12100201000562,91.300355420399995,12,TX,1, , ,MJS 10/30/2017,okay, , ,OK, 
08077000,"Clear Ck nr Pearland, TX",CrestStage,29.597454580000001,-95.286602900000005,100.491538000000006,29.597598718499999,-95.286615398199999,1562340,61.338461295899997,12040204000075,24.492229005999999,12,TX,1, , , , , , ,AutoRef, 
08164800,"Placedo Ck nr Placedo, TX",CrestStage,28.725271370000002,-96.768870199999995,176.896186999999998,28.725329539600001,-96.768814531900006,9349455,91.117137890899997,12100402000051,91.117137890899997,12,TX,1, , , , , , ,AutoRef, 
08075730,"Vince Bayou at Pasadena, TX",ContGage,29.694673630000000,-95.216323000000003,21.393301999999998,29.694674220600000,-95.216430496000001,1440389,37.400155746199999,12040104000093,27.980560000000001,12,TX,0,SEJ 9/6/17,Okay., , , , ,OK, 
08113500,"Richmond Irrigation Co S Canal nr Richmond, TX",ContGage,29.566904189999999,-95.783561599999999,0.000000000000000,-9999.000000000000000,-9999.000000000000000,-9999,-9999.000000000000000,-9999,-9999.000000000000000,12,TX,0,SEJ 9/6/17,Drop. Uninitialized flowline., , ,Drop. NHDPlus is not representative. Uninitialized, ,Drop, 
08029700,"BRUSHY CK @ BANCROFT, LA",CrestStage,30.559924100000000,-93.680450300000004,67.080691999999999,30.558398512699998,-93.681148807800000,8330606,66.997025488500000,12010005000348,66.997025488500000,12,LA,0,SEJ 9/20/17,Okay., , , , ,OK, 
08158810,"Bear Ck bl FM 1826 nr Driftwood, TX",CrestStage,30.155487489999999,-97.940007600000001,31.597854999999999,30.155482603900001,-97.940006973500005,5781401,56.744925459699999,12090205000173,56.744925459699999,12,TX,1, , , , , , ,AutoRef, 
08074760,"Brays Bayou at Alief, TX",CrestStage,29.709119699999999,-95.582999999999998,38.849820999999999,29.709172486000000,-95.582999008499996,1439495,14.656604446099999,12040104000086,42.219773645600000,12,TX,0,SEJ 9/20/17,Okay., , , , ,OK, 
08197500,"Frio Rv bl Dry Frio Rv nr Uvalde, TX",CrestStage,29.245793400000000,-99.674497799999997,1634.282490999999936,29.245320413799998,-99.674134537000000,10646917,12.002082456600000,12110106000083,12.002082456600000,12,TX,1, , , , , , ,AutoRef, 
08104700,"N Fk San Gabriel Rv nr Georgetown, TX",CrestStage,30.661859199999999,-97.711399299999997,642.317048999999997,30.662404728399999,-97.711240507599996,5670899,58.173193571200002,12070205000054,58.173193571200002,12,TX,1, , ,MJS 10/30/2017,okay, , ,OK, 
08189200,"Copano Ck nr Refugio, TX",ContGage,28.303616930000000,-97.112491300000002,227.400955000000010,28.303616930000000,-97.112507426400001,3159657,23.112423670399998,12100405000177,23.112423670399998,12,TX,1, , , , , , ,AutoRef, 
08158930,"Williamson Ck at Manchaca Rd, Austin, TX",CrestStage,30.221320639999998,-97.793616799999995,49.209774000000003,30.221445485499999,-97.793525885799994,5781731,92.696478496899999,12090205000163,92.696478496899999,12,TX,0,SEJ 9/20/17,Okay., , , , ,OK, 
08178700,"Salado Ck at Loop 410, San Antonio, TX",CrestStage,29.516063299999999,-98.431127099999998,354.828370000000007,29.516176851499999,-98.430913777900003,10840232,48.718051200500000,12100301000026,48.718051200500000,12,TX,1, , ,MJS 10/30/2017,okay, , ,OK, 
08068800,"Cypress Ck at Grant Rd nr Cypress, TX",CrestStage,29.973555659999999,-95.598554500000006,554.257453000000055,29.973540480099999,-95.598538352099993,1509175,65.617827654300001,12040102000042,49.194382557300003,12,TX,1, , ,MJS 10/27/2017,okay, , ,OK, 
08075900,"Greens Bayou nr US Hwy 75 nr Houston, TX",CrestStage,29.956888859999999,-95.417993600000003,94.793564000000003,29.956797328499999,-95.417999118400004,1438283,95.478959511900001,12040104000030,99.117043505300003,12,TX,1, , ,MJS 10/27/2017,okay, , ,OK, 
08180700,"Medina Rv nr Macdona, TX",ContGage,29.334957979999999,-98.689744000000005,2292.139469000000190,29.335387951500000,-98.689740490099993,10835974,2.496391930640000,12100302000040,2.496391930640000,12,TX,0,SEJ 8/17/17,Moved to GageLoc location.COMID 10835974.,MJS 10/26/2017,agree with move, , ,Move,10835982
08115000,"Big Ck nr Needville, TX",CrestStage,29.471907689999998,-95.803006699999997,110.851490999999996,29.476484256399999,-95.812760909299996,3124582,25.437925167700001,12070104000101,25.437925167700001,12,TX,1,SEJ 8/17/17,Moved to GageLoc location. COMID 3124582.,MJS 10/30/2017,"further upstream than gage, but relatively close to correct locaiton and no tribs enter between. okay", , ,Move,3124238
08076500,"Halls Bayou at Houston, TX",CrestStage,29.861891430000000,-95.334936499999998,74.332657999999995,29.861735618099999,-95.335000381399993,1438737,65.092156678600006,12040104000897,30.199889395500001,12,TX,0,SEJ 9/6/17,Okay., , , , ,OK, 
08076700,"Greens Bayou at Ley Rd, Houston, TX",CrestStage,29.837169500000002,-95.233267100000006,471.377834000000007,29.837089825100001,-95.233332781900003,1440239,82.649153840500006,12040104000024,82.649153840500006,12,TX,1, , ,MJS 10/30/2017,okay, , ,OK, 
08183500,"San Antonio Rv nr Falls City, TX",ContGage,28.951640670000000,-98.064172299999996,5472.644854999999552,28.951604106000001,-98.064236709699998,3838221,42.857044827599999,12100303000184,42.857044827599999,12,TX,1, , , , , , ,AutoRef, 
08158840,"Slaughter Ck at FM 1826 nr Austin, TX",ContGage,30.209097199999999,-97.903340900000003,21.341501999999998,30.209090820699998,-97.903347090599993,5781373,95.630006432900004,12090205000085,95.630006432900004,12,TX,0,SEJ 9/13/17,Okay., , , , ,OK, 
08072760,"Langham Ck at W Little York Rd nr Addicks, TX",CrestStage,29.867170349999999,-95.646612000000005,63.713706999999999,29.867081646799999,-95.646656182800001,1440211,47.751701957900003,12040104000708,47.751701957900003,12,TX,0,SEJ 9/20/17,Okay., , , , ,OK, 
08198000,"Sabinal Rv nr Sabinal, TX",ContGage,29.491064399999999,-99.492824100000007,533.537549000000013,29.491269562399999,-99.492780058299999,10645747,25.409667273099998,12110106000028,19.548467601599999,12,TX,1, , , , , , ,AutoRef, 
08066500,"Trinity Rv at Romayor, TX",ContGage,30.425206700000000,-94.850762200000005,44511.535487000001012,30.425123411000001,-94.850910494700003,1513293,94.144550681300004,12030203000521,94.144550681300004,12,TX,1, , , , , , ,AutoRef, 
08068450,"Panther Br nr Spring, TX",ContGage,30.134383199999998,-95.477717499999997,89.354589000000004,30.134381675000000,-95.477750001800004,1508045,57.465742793499999,12040102000067,57.465742793499999,12,TX,1, , , , , , ,AutoRef, 
08068000,"W Fk San Jacinto Rv nr Conroe, TX",CrestStage,30.244657380000000,-95.457161600000006,2144.510146999999961,30.244772255400001,-95.457116355099998,1468280,40.347395802199998,12040101000021,40.347395802199998,12,TX,1, , ,MJS 10/27/2017,okay, , ,OK, 
08074540,"Little Whiteoak Bayou at Trimble St, Houston, TX",CrestStage,29.792777780000002,-95.368055600000005,46.878785000000001,29.792658196600001,-95.368154721500005,1439229,43.651069634599999,12040104000115,27.136049742200001,12,TX,0,SEJ 9/20/17,Okay., , , , ,OK, 
08186000,"Cibolo Ck nr Falls City, TX",CrestStage,29.014138689999999,-97.930280800000006,2141.920158999999785,29.014123921500001,-97.930277122700005,7852265,61.005061017800003,12100304000005,66.422838463299996,12,TX,1, , , , , , ,AutoRef, 
08068900,"Cypress Ck at Stuebner-Airline Rd nr Westfield, TX",CrestStage,30.006609940000001,-95.511885000000007,642.317048999999997,30.006753480099999,-95.512081481600006,1508295,52.584729490199997,12040102000039,52.584729490199997,12,TX,1, , , , , , ,AutoRef, 
08176900,"Coleto Ck at Arnold Rd Crsg nr Schroeder, TX",CrestStage,28.861653080000000,-97.226379100000003,924.625752000000034,28.862617349800001,-97.226071142099997,1638559,29.782073414999999,12100204000079,29.782073414999999,12,TX,1, , , , , , ,AutoRef, 
08198500,"Sabinal Rv at Sabinal, TX",CrestStage,29.314305560000001,-99.480472199999994,624.187132000000020,29.314359613699999,-99.480359081200007,10646003,81.079600161700000,12110106000022,40.207592635099999,12,TX,1, , , , , , ,AutoRef, 
08074500,"Whiteoak Bayou at Houston, TX",CrestStage,29.775227770000001,-95.397161199999999,246.307868000000013,29.775175077600000,-95.397164724500001,1440291,49.333056742700002,12040104000041,49.333056742700002,12,TX,1, , ,MJS 10/27/2017,okay, , ,OK, 
08164300,"Navidad Rv nr Hallettsville, TX",CrestStage,29.466908000000000,-96.812755999999993,859.876048999999966,29.467041477700000,-96.811269588700000,7846049,71.489499270300001,12100102000106,71.489499270300001,12,TX,1, , , , , , ,AutoRef, 
08157500,"Waller Ck at 23rd St, Austin, TX",CrestStage,30.285763469999999,-97.733894199999995,10.696650999999999,30.285672292600001,-97.734175087699995,5781313,32.131771391800001,12090205000126,32.131771391800001,12,TX,1, , ,MJS 10/30/2017,okay, , ,OK, 
08068700,"Cypress Ck at Sharp Rd nr Hockley, TX",CrestStage,29.921058230000000,-95.840228999999994,209.012040000000013,29.921038745699999,-95.840182627900006,1509333,93.482823435900002,12040102000052,93.482823435900002,12,TX,1, , , , , , ,AutoRef, 
08177900,"San Antonio Rv at Navarro St, San Antonio, TX",CrestStage,29.430788339999999,-98.490294800000001,95.052563000000006,29.430937161900001,-98.490347746500007,10840810,6.212345078300000,12100301000187,4.223167715090000,12,TX,1, , ,MJS 10/30/2017,okay, , ,OK, 
08030000,"Cypress Ck nr Buna, TX",CrestStage,30.431316899999999,-93.907954399999994,179.227177000000012,30.431275974100000,-93.907982031800003,8331632,44.095893783599998,12010005000263,44.095893783599998,12,TX,1, , , , , , ,AutoRef, 
08068720,"Cypress Ck at Katy-Hockley Rd nr Hockley, TX",ContGage,29.950223699999999,-95.808283500000002,284.898690999999985,29.949928641800000,-95.808215980900002,1509241,5.473617905260000,12040102000050,5.473617905260000,12,TX,1, , , , , , ,AutoRef, 
08148500,"N Llano Rv nr Junction, TX",CrestStage,30.517410099999999,-99.806179000000000,2367.249123000000054,30.516707819299999,-99.806306422199995,5761759,97.436059999999998,12090202000002,97.436059999999998,12,TX,1, , , , , , ,AutoRef, 
08206700,"San Miguel Ck nr Tilden, TX",CrestStage,28.587487870000000,-98.545851299999995,2027.960681999999906,28.586988029000000,-98.545851603800003,10671061,25.836975133900001,12110109000007,25.836975133900001,12,TX,1, , , , , , ,AutoRef, 
08188600,"GBRA Calhoun Canal Pump Sta nr Long Mott, TX",ContGage,28.496666999999999,-96.771094099999999,0.000000000000000,-9999.000000000000000,-9999.000000000000000,-9999,-9999.000000000000000,-9999,-9999.000000000000000,12,TX,0,SEJ 9/6/17,Drop. Uninitialized flowline., , ,Drop. NHDPlus is not representative. Uninitialized, ,Drop, 
08201500,"Seco Ck at Miller Rh nr Utopia, TX",ContGage,29.573284000000001,-99.403099699999999,116.549464999999998,29.573454406300002,-99.402922759800006,10653905,22.582230452200001,12110107000067,22.582230452200001,12,TX,1, , , , , , ,AutoRef, 
08066191,"Livingston Res Outflow Weir nr Goodrich, TX",CrestStage,30.632141930000000,-95.019935500000003,42949.772662000003038,30.632592413600001,-95.020042043000004,1492990,24.299901469600002,12030202033141,24.299901469600002,12,TX,1, , , , , , ,AutoRef, 
08150800,"Beaver Ck nr Mason, TX",ContGage,30.643515480000001,-99.095884799999993,556.847441000000003,30.643508428600001,-99.095805767399995,5770545,52.299672791299997,12090204000250,52.299672791299997,12,TX,1, , , , , , ,AutoRef, 
08153500,"Pedernales Rv nr Johnson City, TX",CrestStage,30.291866949999999,-98.399467400000006,2333.579278000000158,30.291001591899999,-98.400178980299998,5786075,70.760381078899997,12090206000020,94.483358174200006,12,TX,1, , , , , , ,AutoRef, 
08171000,"Blanco Rv at Wimberley, TX",CrestStage,29.994380799999998,-98.088898000000000,919.445775000000026,29.993714765699998,-98.088715208799997,1630223,69.634027552700005,12100203000084,69.634027552700005,12,TX,1, , , , , , ,AutoRef, 
08160400,"Colorado Rv abv La Grange, TX",ContGage,29.912447400000001,-96.903869900000004,105863.173599000001559,29.913185662200000,-96.895973369399996,5791848,74.930863990600002,12090301000862,38.489489634199998,12,TX,0,SEJ 9/13/17,Okay., , , , ,OK, 
08206910,"Choke Canyon Res OWC nr Three Rivers, TX",ContGage,28.486103260000000,-98.241675200000003,14219.034669000000576,28.485667303000000,-98.241473412199994,10664160,76.595161989199994,12110108000417,76.595161989199994,12,TX,0,SEJ 9/20/17,Okay., , , , ,OK, 
08074250,"Brickhouse Gully at Costa Rica St, Houston, TX",CrestStage,29.828004239999999,-95.469385000000003,29.525863999999999,29.827832806400000,-95.469482771399996,1440245,57.885587569599998,12040104000689,57.885587569599998,12,TX,1, , ,MJS 10/30/2017,okay, , ,OK, 
08205500,"Frio Rv nr Derby, TX",ContGage,28.736644290000001,-99.144755599999996,8881.069195000000036,28.737003575700001,-99.144396264500003,10661028,86.107462493499995,12110106009256,86.107462493499995,12,TX,1, , , , , , ,AutoRef, 
08068780,"Little Cypress Ck nr Cypress, TX",CrestStage,30.016054369999999,-95.697446299999996,106.189511999999993,30.016068077000000,-95.697444739399998,1508121,40.590492727700003,12040102000201,66.762703592899996,12,TX,0,"JAF, 12/21/2015 --> LH 7/11/2017",OK. Water-year summary says 5 ft downstream from bridge on Cypress-Rose Hill Road.,MJS 10/26/2017,okay, , ,OK, 
08164503,"W Mustang Ck nr Ganado, TX",ContGage,29.071858330000001,-96.468027800000002,461.017881999999986,29.072107835299999,-96.467872506999996,7846391,54.934628684000003,12100102000019,54.934628684000003,12,TX,1, , , , , , ,AutoRef, 
08070200,"E Fk San Jacinto Rv nr New Caney, TX",ContGage,30.145493200000001,-95.124375599999993,1004.915383000000020,30.145516517099999,-95.124741689700002,1520083,87.500123825399996,12040103000383,87.500123825399996,12,TX,1, , , , , , ,AutoRef, 
08159000,"Onion Ck at US Hwy 183, Austin, TX",CrestStage,30.177989870000001,-97.688613799999999,831.386179999999968,30.178125761600000,-97.688620509399996,5781369,20.823971116199999,12090205000078,20.823971116199999,12,TX,1, , ,MJS 10/30/2017,okay, , ,OK, 
08066300,"Menard Ck nr Rye, TX",CrestStage,30.481388890000002,-94.779722199999995,393.678191000000027,30.481352054900000,-94.779706761800000,1494036,30.874005980200000,12030202000004,30.874005980200000,12,TX,1, , , , , , ,AutoRef, 
08189500,"Mission Rv at Refugio, TX",ContGage,28.291950880000002,-97.279159300000003,1787.091789000000063,28.292137743800001,-97.278732018499994,5289461,85.173033317399998,12100406000023,85.173033317399998,12,TX,1, , , , , , ,AutoRef, 
08068325,"Willow Ck nr Tomball, TX",CrestStage,30.105495260000001,-95.546608399999997,106.189511999999993,30.105520887499999,-95.546649559499997,1508279,45.313499285399999,12040102000033,27.569720799500001,12,TX,0,SEJ 9/20/17,Okay., , , , ,OK, 
08068090,"W Fk San Jacinto Rv abv Lk Houston nr Porter, TX",ContGage,30.086051399999999,-95.299934800000003,2491.568552000000182,30.085574839700001,-95.300030696600004,1468106,74.452064222100006,12040101000636,79.832244894300004,12,TX,1, , , , , , ,AutoRef, 
08168500,"Guadalupe Rv abv Comal Rv at New Braunfels, TX",ContGage,29.714946500000000,-98.110008300000004,3931.601936000000023,29.715429665300000,-98.109820136200000,1620031,19.138358557000000,12100202000720,17.916251877600001,12,TX,1, , , , , , ,AutoRef, 
08212300,"Tranquitas Ck at Kingsville, TX",CrestStage,27.526146239999999,-97.867498200000000,125.614423000000002,27.526315523200001,-97.867476636099994,1655121,79.715121465500005,12110204000059,79.715121465500005,12,TX,1, , , , , , ,AutoRef, 
08068740,"Cypress Ck at House-Hahl Rd nr Cypress, TX",CrestStage,29.959112000000001,-95.717724899999993,339.288440999999978,29.959141102499999,-95.717702431299998,1509209,61.811823498999999,12040102000047,61.811823498999999,12,TX,1, , ,MJS 10/30/2017,okay, , ,OK, 
08152900,"Pedernales Rv nr Fredericksburg, TX",CrestStage,30.220481469999999,-98.869760900000003,955.705608999999981,30.219880481099999,-98.869908769199995,5785479,62.157391299600000,12090206000060,62.157391299600000,12,TX,1, , ,MJS 10/30/2017,okay, , ,OK, 
08073500,"Buffalo Bayou nr Addicks, TX",ContGage,29.761895800000001,-95.605778200000003,717.426703999999972,29.761904283900002,-95.605778198600007,1439317,68.463950620700004,12040104000058,70.923671017700002,12,TX,1, , ,MJS 10/27/2017,okay, , ,OK, 
08186500,"Ecleto Ck nr Runge, TX",CrestStage,28.920254190000001,-97.772222099999993,619.007156000000009,28.920131488399999,-97.772704225300004,3838999,68.256510000000006,12100303000120,68.256510000000006,12,TX,1, , , , , , ,AutoRef, 
08069500,"W Fk San Jacinto Rv nr Humble, TX",CrestStage,30.027163850000001,-95.257988800000007,4509.169281999999839,30.026845117099999,-95.258004143999997,1468442,76.606331432299996,12040101011507,76.606331432299996,12,TX,1, , , , , , ,AutoRef, 
08173000,"Plum Ck nr Luling, TX",CrestStage,29.699673000000001,-97.603608199999996,800.306323000000020,29.699483700300000,-97.603856168500002,1631587,17.880949718600000,12100203000015,17.880949718600000,12,TX,1, , ,MJS 10/30/2017,okay, , ,OK, 
08177000,"Coleto Ck nr Schroeder, TX",CrestStage,28.831654470000000,-97.186378599999998,955.705608999999981,28.831649089399999,-97.186347672200000,165912613,50.796273732600000,12100204000940,24.862637468999999,12,TX,1, , , , , , ,AutoRef, 
08041000,"Neches Rv at Evadale, TX",CrestStage,30.355763780000000,-94.093237299999998,20592.995383000001311,30.356170930200001,-94.093473997199993,1114207,1.263321982090000,12020003000037,1.263321982090000,12,TX,0,"JAF, 12/21/2015 --> LH, 7/11/2017",Move to main stem Neches River COMID 1114207.,MJS 10/26/2017,agree with move, , ,Move,1114209
08155200,"Barton Ck at SH 71 nr Oak Hill, TX",CrestStage,30.296315870000001,-97.925565000000006,232.321933000000001,30.296159190899999,-97.925238301500002,5781265,96.405894316599998,12090205000063,96.405894316599998,12,TX,1, , ,MJS 10/30/2017,okay, , ,OK, 
08071000,"Peach Ck at Splendora, TX",CrestStage,30.232713700000001,-95.168266200000005,303.028608000000020,30.232727367199999,-95.168352216100004,1520237,7.089329632270000,12040103000086,7.089329632270000,12,TX,1, , , , , , ,AutoRef, 
08111700,"Mill Ck nr Bellville, TX",ContGage,29.881061450000001,-96.205240200000006,973.835525999999959,29.881048145400001,-96.205233233700000,3122466,91.126414614100000,12070104000053,91.126414614100000,12,TX,1, , , , , , ,AutoRef, 
08079000,"Oyster Ck nr Angleton, TX",ContGage,29.158577350000002,-95.475775299999995,295.258643000000006,29.158569812100001,-95.475798377499999,1574618,1.697211542330000,12040205000037,1.697211542330000,12,TX,0,SEJ 9/6/17,Okay., , , , ,OK, 
08076000,"Greens Bayou nr Houston, TX",ContGage,29.918278399999998,-95.306879600000002,177.932182000000012,29.918297534499999,-95.306878845599996,1440183,63.675409249900000,12040104000030,18.331877412400001,12,TX,1, , ,MJS 10/27/2017,okay, , ,OK, 
08164000,"Lavaca Rv nr Edna, TX",ContGage,28.959984490000000,-96.686366800000002,2116.020277999999962,28.959976092800002,-96.686624077600001,7842827,11.643315492699999,12100101000013,11.643315492699999,12,TX,1, , , , , , ,AutoRef, 
08042500,"Hillebrandt Bayou nr Lovell Lake, TX",CrestStage,29.928888890000000,-94.109722199999993,331.518477000000019,29.928696276899998,-94.109725546600004,1479661,66.927200907100001,12040201000751,47.452669591800003,12,TX,0,SEJ 9/20/17,Okay., , , , ,OK, 
08196000,"Dry Frio Rv nr Reagan Wells, TX",CrestStage,29.504675760000001,-99.781445199999993,326.338501000000008,29.504684558200001,-99.781469715499995,10644541,56.560285630899997,12110106000153,86.433338461399998,12,TX,1, , , , , , ,AutoRef, 
08157000,"Waller Ck at 38th St, Austin, TX",ContGage,30.297151960000001,-97.726949700000006,5.982873000000000,30.297182824000000,-97.727072960300006,5781313,48.024406867000003,12090205000126,48.024406867000003,12,TX,1, , ,MJS 10/30/2017,okay, , ,OK, 
08159200,"Colorado Rv at Bastrop, TX",CrestStage,30.104661539999999,-97.319436800000005,103545.134250000002794,30.104608006500001,-97.319703038699998,5790218,18.943645767300001,12090301000874,67.270806785600001,12,TX,1, , , , , , ,AutoRef, 
08030500,"Sabine Rv nr Ruliff, TX",CrestStage,30.303816840000000,-93.743778399999997,24161.998984999998356,30.303774317100000,-93.743845095500006,8331804,86.293056996900006,12010005001444,86.293056996900006,12,TX,1, , , , , , ,AutoRef, 
08155300,"Barton Ck at Loop 360, Austin, TX",CrestStage,30.244653060000001,-97.802228299999996,300.438620000000014,30.244784258799999,-97.802281047199997,5781337,63.920162481399998,12090205000059,63.920162481399998,12,TX,1, , ,MJS 10/30/2017,okay, , ,OK, 
08180000,"Medina Canal nr Riomedina, TX",ContGage,29.505508500000001,-98.903361899999993,0.000000000000000,-9999.000000000000000,-9999.000000000000000,-9999,-9999.000000000000000,-9999,-9999.000000000000000,12,TX,0,SEJ 9/6/17,Drop. Uninitialized flowline., , ,Drop. NHDPlus is not representative. Uninitialized, ,Drop, 
08042000,"Taylor Bayou nr LaBelle, TX",CrestStage,29.875000000000000,-94.159444399999998,678.576881999999955,29.875156211899998,-94.159446800200001,1479739,22.149327768500001,12040201000020,16.586792106299999,12,TX,1, , , , , , ,AutoRef, 
08069000,"Cypress Ck nr Westfield, TX",CrestStage,30.035775300000001,-95.428826999999998,738.146608000000015,30.035788615600001,-95.428827006399999,1508289,41.063388376399999,12040102000037,41.063388376399999,12,TX,1, , , , , , ,AutoRef, 
08194500,"Nueces Rv nr Tilden, TX",CrestStage,28.308889059999998,-98.557238400000003,20960.773692999999184,28.308985196199998,-98.557285246600003,10631613,45.343619334099998,12110105000019,45.343619334099998,12,TX,1, , , , , , ,AutoRef, 
08068500,"Spring Ck nr Spring, TX",CrestStage,30.110495170000000,-95.436327500000004,1059.305133000000069,30.110612707200001,-95.436512969600003,1508043,33.632135388899997,12040102000004,49.630447629499997,12,TX,1, , ,MJS 10/30/2017,okay, , ,OK, 
08169500,"Guadalupe Rv at New Braunfels, TX",CrestStage,29.698002649999999,-98.106674799999993,4278.660340999999789,29.697823422100001,-98.106972162600002,1619653,69.762438762900004,12100202000121,69.762438762900004,12,TX,1, , ,MJS 10/30/2017,okay, , ,OK, 
08074810,"Brays Bayou at Gessner Dr, Houston, TX",CrestStage,29.672731700000000,-95.528276500000004,135.974375000000009,29.672730850299999,-95.528276606500000,1439635,99.310249213500001,12040104000085,97.683258084900004,12,TX,0,SEJ 9/20/17,Okay., , , , ,OK, 
08031000,"Cow Bayou nr Mauriceville, TX",ContGage,30.186320450000000,-93.908505800000000,215.746008999999987,30.186320648100001,-93.908533870900001,8331928,49.566398145100003,12010005000284,49.566398145100003,12,TX,1, , , , , , ,AutoRef, 
08211520,"Oso Ck at Corpus Christi, TX",ContGage,27.711418790000000,-97.501937699999999,233.875924999999995,27.711043276900000,-97.502241699699994,1636035,7.252498688500000,12110202000012,7.252498688500000,12,TX,1, , ,MJS 10/30/2017,okay, , ,OK, 
08178500,"San Pedro Ck at Furnish St, San Antonio, TX",CrestStage,29.406344699999998,-98.510850800000000,6.837569000000000,29.406350492400001,-98.510903397899995,10840824,79.354253772400000,12100301000156,79.354253772400000,12,TX,1, , ,MJS 10/30/2017,okay, , ,OK, 
08187500,"Escondido Ck at Kenedy, TX",CrestStage,28.819980070000000,-97.859167999999997,187.515138000000007,28.819858189600001,-97.859121365099995,3839263,53.377589625500001,12100303000214,53.377589625500001,12,TX,1, , , , , , ,AutoRef, 
08180800,"Medina Rv nr Somerset, TX",ContGage,29.262182859999999,-98.581407400000003,2504.518493000000035,29.261742339900000,-98.581616656600005,10836104,28.131783202899999,12100302000029,28.131783202899999,12,TX,1, , , , , , ,AutoRef, 
08194200,"San Casimiro Ck nr Freer, TX",CrestStage,27.965013290000002,-98.966967800000006,1214.704418999999916,27.965049848600000,-98.967017759200004,10634531,78.474416687499996,12110105000174,78.474416687499996,12,TX,1, , , , , , ,AutoRef, 
08162500,"Colorado Rv nr Bay City, TX",CrestStage,28.974146200000000,-96.012458800000005,109401.097343999994337,28.974443534500001,-96.011826906699994,3765768,77.069714613399995,12090302000383,63.300639781800001,12,TX,1, , , , , , ,AutoRef, 
08074000,"Buffalo Bayou at Houston, TX",CrestStage,29.760228290000001,-95.408550500000004,870.236001999999985,29.760571663299999,-95.408540617900002,1440301,59.147228175800002,12040104000050,59.147228175800002,12,TX,1, , ,MJS 10/27/2017,okay, , ,OK, 
08158000,"Colorado Rv at Austin, TX",CrestStage,30.246138890000001,-97.680055600000003,101032.845793000000413,30.245419351900001,-97.693719637900003,5781917,98.987756816300006,12090205000014,64.446206747100007,12,TX,1,SEJ 8/17/17,"Okay (shifted upstream of bridge, but same COMID). GageLoc is wrong.",MJS 10/26/2017,okay, , ,OK - Shift, 
08175000,"Sandies Ck nr Westhoff, TX",CrestStage,29.215247500000000,-97.449435300000005,1421.903467000000092,29.215178241499999,-97.449492526300006,1623207,52.031446020799997,12100202000156,52.031446020799997,12,TX,1, , , , , , ,AutoRef, 
08072300,"Buffalo Bayou nr Katy, TX",ContGage,29.743286640000001,-95.806895100000006,163.946247000000000,29.743165287800000,-95.806994712800005,1440311,52.008681248000002,12040104000079,52.008681248000002,12,TX,1, , ,MJS 10/27/2017,okay, , ,OK, 
08190000,"Nueces Rv at Laguna, TX",CrestStage,29.428566790000001,-99.997287000000000,1908.821230000000014,29.428522664399999,-99.997170678299995,7872253,77.976803798999995,12110101000006,82.223252623199997,12,TX,1, , , , , , ,AutoRef, 
08200000,"Hondo Ck nr Tarpley, TX",ContGage,29.570030559999999,-99.247688900000000,247.602861999999988,29.570128598400000,-99.247613319699994,10654651,24.169101964599999,12110107000028,24.169101964599999,12,TX,1, , , , , , ,AutoRef, 
08165300,"N Fk Guadalupe Rv nr Hunt, TX",ContGage,30.064097470000000,-99.386991600000002,437.707988999999998,30.064412898499999,-99.387287152100001,3585678,51.381653529600001,12100201000102,46.210034530700000,12,TX,1, , ,MJS 10/30/2017,okay, , ,OK, 
08167800,"Guadalupe Rv at Sattler, TX",ContGage,29.859107580000000,-98.180010600000003,3719.222912000000179,29.859030062700000,-98.179773767900002,1619595,0.401941249913000,12100202000134,42.834528883099999,12,TX,0,"JAF, 12/21/2015 --> LH 7/11/2017",OK.,MJS 10/27/2017,okay, , ,OK, 
08150000,"Llano Rv nr Junction, TX",ContGage,30.504354870000000,-99.734509700000004,4801.837937000000238,30.504519116000001,-99.734326679800006,5770577,17.957943131800000,12090204000200,44.727232557999997,12,TX,1, , , , , , ,AutoRef, 
08066250,"Trinity Rv nr Goodrich, TX",CrestStage,30.572145440000000,-94.948822300000003,43625.759555999997247,30.570711619200001,-94.949605429700000,1487840,79.012054933000002,12030202001950,77.735709999999997,12,TX,1, , , , , , ,AutoRef, 
08188800,"Guadalupe Rv nr Tivoli, TX",ContGage,28.505833700000000,-96.884708399999994,26231.399476999999024,28.505863167899999,-96.884702070499998,1640227,86.519098777099998,12100303010780,94.233177049700004,12,TX,1, , ,MJS 10/27/2017,okay, , ,OK, 
08067070,"CWA Canal nr Dayton, TX",ContGage,29.961328980000001,-94.810200300000005,0.000000000000000,-9999.000000000000000,-9999.000000000000000,-9999,-9999.000000000000000,-9999,-9999.000000000000000,12,TX,0,SEJ 9/6/17,Drop. Uninitialized flowline., , ,Drop. NHDPlus is not representative. Uninitialized, ,Drop, 
08074020,"Whiteoak Bayou at Alabonson Rd, Houston, TX",CrestStage,29.870780730000000,-95.480496099999996,89.354589000000004,29.870676627100000,-95.480499145400003,1438725,46.900945844299997,12040104000045,30.007220461100001,12,TX,1, , ,MJS 10/27/2017,okay, , ,OK, 
08181480,"Leon Ck at IH 35, San Antonio, TX",ContGage,29.329958370000000,-98.584185599999998,567.207394000000022,29.329582051100001,-98.585097349500003,10836388,29.961118489899999,12100302000008,29.961118489899999,12,TX,1, , ,MJS 10/30/2017,okay, , ,OK, 
08211200,"Nueces Rv at Bluntzer, TX",ContGage,27.937795940000001,-97.775830799999994,43022.292329000003519,27.938260163799999,-97.775521017599999,3171770,30.585259592900002,12110111000010,30.585259592900002,12,TX,1, , , , , , ,AutoRef, 
08110200,"Brazos Rv at Washington, TX",CrestStage,30.361319080000001,-96.155236599999995,106686.789814999996452,30.361289028300000,-96.155305179999999,5559374,67.913652208599999,12070101000973,9.442442548470000,12,TX,1, , , , , , ,AutoRef, 
08110000,"Yegua Ck nr Somerville, TX",ContGage,30.321877300000001,-96.507468299999999,2613.297993000000133,30.321781325900002,-96.507463279299998,5570685,92.835899069099995,12070102000608,92.835899069099995,12,TX,1, , , , , , ,AutoRef, 
08158920,"Williamson Ck at Oak Hill, TX",ContGage,30.235208060000001,-97.860284800000002,16.316925000000001,30.235119290200000,-97.860305688899999,5781345,43.815288644299997,12090205000165,43.815288644299997,12,TX,1, , , , , , ,AutoRef, 
08075770,"Hunting Bayou at IH 610, Houston, TX",CrestStage,29.793282170000001,-95.267990699999999,41.698808000000000,29.793290556799999,-95.267993943600004,1440277,64.037273203900000,12040104000111,84.427297769500001,12,TX,0,SEJ 9/6/17,Okay., , , , ,OK, 
08211000,"Nueces Rv nr Mathis, TX",CrestStage,28.038347190000000,-97.860276900000002,42742.573614000000816,28.038273389299999,-97.860298339099998,3170312,87.663042457800003,12110111000015,87.663042457800003,12,TX,1, , , , , , ,AutoRef, 
08158050,"Boggy Ck at US Hwy 183, Austin, TX",CrestStage,30.263264870000000,-97.672503199999994,33.928843999999998,30.263292252799999,-97.672495796400000,5781295,71.058106738099994,12090205000368,74.945793116900006,12,TX,1, , ,MJS 10/30/2017,okay, , ,OK, 
08193000,"Nueces Rv nr Asherton, TX",CrestStage,28.500263130000000,-99.681993500000004,10572.331423999999970,28.500299111099999,-99.681985524100000,10893541,3.320290886820000,12110103000077,91.217102821699996,12,TX,1, , , , , , ,AutoRef, 
08108700,"Brazos Rv at SH 21 nr Bryan, TX",CrestStage,30.626866499999998,-96.544134999999997,101136.445317000005161,30.627942616599999,-96.544246515699996,5558060,43.278090802500003,12070101000984,43.278090802500003,12,TX,1, , ,MJS 10/27/2017,okay, , ,OK, 
08169000,"Comal Rv at New Braunfels, TX",CrestStage,29.706408329999999,-98.122208299999997,336.698452999999972,29.706516727600000,-98.121987561400005,1619649,65.129150823399996,12100202000136,65.129150823399996,12,TX,0,"JAF, 12/21/2015 --> LH 7/11/2017",OK., , , , ,OK, 
08184000,"Cibolo Ck nr Bulverde, TX",CrestStage,29.726056150000002,-98.427238799999998,512.817643999999973,29.726013601300000,-98.427208336000007,7850619,41.715624621899998,12100304000039,41.715624621899998,12,TX,1, , , , , , ,AutoRef, 
08116400,"Dry Ck nr Rosenberg, TX",ContGage,29.511905930000001,-95.746894200000000,22.403396999999998,29.512196675100000,-95.746948207000003,3123676,29.872254671299999,12070104000309,31.589872499300000,12,TX,1,"JAF, 12/21/2015 --> LH 7/11/2017",OK. Water-year summary says on the downstream left embankment of wooden bridge on Ricefield Road,MJS 10/26/2017,okay, , ,OK, 
08176500,"Guadalupe Rv at Victoria, TX",ContGage,28.793045599999999,-97.013042900000002,13462.758143999999447,28.792955753899999,-97.013140703000005,1639225,68.273154255600005,12100204000014,68.273154255600005,12,TX,1, , ,MJS 10/30/2017,okay, , ,OK, 
08164500,"Navidad Rv nr Ganado, TX",CrestStage,29.025814700000002,-96.552473300000003,2750.567361999999775,29.025886630199999,-96.552364243200003,7846469,50.079740576799999,12100102000030,50.079740576799999,12,TX,1, , , , , , ,AutoRef, 
08070000,"E Fk San Jacinto Rv nr Cleveland, TX",ContGage,30.336598089999999,-95.104099899999994,841.746132999999986,30.336623397600000,-95.103951648999995,1520007,32.164599308800000,12040103000017,32.164599308800000,12,TX,1, , ,MJS 10/27/2017,okay, , ,OK, 
08160000,"Dry Ck at Buescher Lk nr Smithville, TX",ContGage,30.042442000000001,-97.159710000000004,3.833182000000000,30.042422698599999,-97.159910232599998,5789946,15.586583150099999,12090301000347,15.586583150099999,12,TX,0,SEJ 9/13/17,Okay., , , , ,OK, 
08072700,"S Mayde Ck nr Addicks, TX",CrestStage,29.801061590000000,-95.692447000000001,83.656616000000000,29.800963198800002,-95.692442858000007,1440263,88.799637124100002,12040104000069,42.383516241599999,12,TX,1, , ,MJS 10/27/2017,okay, , ,OK, 
08173500,"San Marcos Rv at Ottine, TX",ContGage,29.592608330000001,-97.588088900000002,3234.895136999999977,29.592170109900000,-97.588208713699998,1631413,12.847870281000001,12100203000009,12.847870281000001,12,TX,1, , , , , , ,AutoRef, 
08190500,"W Nueces Rv nr Brackettville, TX",CrestStage,29.481083330000001,-100.239166699999998,1797.451741000000084,29.481471950700001,-100.238805485000000,7876116,40.883806389599997,12110102000030,40.883806389599997,12,TX,1, , , , , , ,AutoRef, 
08212400,"Los Olmos Ck nr Falfurrias, TX",ContGage,27.264486179999999,-98.135837800000004,1243.194287999999915,27.264398519000000,-98.135848979700000,1585173,75.304210334000004,12110205000079,92.918208190000001,12,TX,1, , , , , , ,AutoRef, 
08158970,"Williamson Ck at Jimmy Clay Rd, Austin, TX",ContGage,30.189378000000001,-97.732504000000006,71.483671999999999,30.189555500800001,-97.732677769000006,5781731,9.665202369070000,12090205000163,9.665202369070000,12,TX,1, , ,MJS 10/30/2017,okay, , ,OK, 
08067525,"Goose Ck at Baytown, TX",CrestStage,29.770781970000002,-94.999650299999999,40.921812000000003,29.770851837599999,-95.000079130499998,1558800,6.916260227190000,12040104015056,4.997412273700000,12,TX,1, , , , , , ,AutoRef, 
08176550,"Fifteenmile Ck nr Weser, TX",CrestStage,28.897761030000002,-97.354992199999998,432.528012999999987,28.897589045699998,-97.355078663800001,1638505,75.034498920199994,12100204000108,75.034498920199994,12,TX,1, , , , , , ,AutoRef, 
08105400,"San Gabriel Rv nr Circleville, TX",CrestStage,30.628807630000001,-97.473335599999999,1551.402871999999888,30.629064669000002,-97.473465292599997,5671577,56.588922680700001,12070205000033,56.588922680700001,12,TX,1, , , , , , ,AutoRef, 
08072350,"Buffalo Bayou nr Fulshear, TX",CrestStage,29.723009200000000,-95.767171800000000,211.602027999999990,29.722457046300001,-95.767153670900001,1440377,98.188807564300006,12040104000077,98.188807564300006,12,TX,1, , , , , , ,AutoRef, 
08179000,"Medina Rv nr Pipe Creek, TX",CrestStage,29.675503389999999,-98.976142899999999,1227.654359000000113,29.675557997199999,-98.976081916599995,10834916,3.839428288660000,12100302000065,14.888166397299999,12,TX,1, , , , , , ,AutoRef, 
08075780,"Greens Bayou at Cutten Rd nr Houston, TX",CrestStage,29.949111779999999,-95.519663300000005,22.403396999999998,29.948995554600000,-95.519680345400005,1438277,46.406315166100001,12040104000753,62.615161472499999,12,TX,1, , ,MJS 10/27/2017,okay, , ,OK, 
08167000,"Guadalupe Rv at Comfort, TX",CrestStage,29.965238889999998,-98.897166700000000,2173.000015999999960,29.965379207200002,-98.897542930599997,3589508,94.309435251099998,12100201000045,94.309435251099998,12,TX,1, , , , , , ,AutoRef, 
08181400,"Helotes Ck at Helotes, TX",ContGage,29.578561080000000,-98.691689600000004,38.849820999999999,29.578355587099999,-98.691517482400002,10835030,6.183249133530000,12100302000299,6.183249133530000,12,TX,1, , , , , , ,AutoRef, 
08109700,"Middle Yegua Ck nr Dime Box, TX",CrestStage,30.339377639999999,-96.904703699999999,611.237192000000050,30.339413664100000,-96.904701224799993,5570395,82.323495259100000,12070102000094,82.323495259100000,12,TX,1, , , , , , ,AutoRef, 
08189800,"Chiltipin Ck at Sinton, TX",ContGage,28.046959189999999,-97.503883200000004,331.518477000000019,28.046771619800001,-97.504001799700006,5298483,55.217417331800000,12100407000134,55.217417331800000,12,TX,0,SEJ 9/13/17,Okay., , , , ,OK, 
08109000,"Brazos Rv nr Bryan, TX",ContGage,30.614089249999999,-96.486632799999995,102343.379772000000230,30.614246750700001,-96.487124642400005,5558068,75.636784726000002,12070101000982,72.235536024100000,12,TX,1, , ,MJS 10/30/2017,okay, , ,OK, 
08185000,"Cibolo Ck at Selma, TX",CrestStage,29.594116600000000,-98.311124199999995,709.656739000000016,29.594116156900000,-98.311109290199994,7851041,75.560686359700000,12100304000032,75.560686359700000,12,TX,1, , , , , , ,AutoRef, 
08077600,"Clear Ck nr Friendswood, TX",CrestStage,29.517455170000002,-95.178544000000002,315.978547999999989,29.517371281199999,-95.178643496000007,1563092,64.930515712000002,12040204000025,69.376768714899995,12,TX,1, , , , , , ,AutoRef, 
08155240,"Barton Ck at Lost Ck Blvd nr Austin, TX",CrestStage,30.274095700000000,-97.844729599999994,277.128727000000026,30.274269294200000,-97.844465818000003,5781325,94.798991105499994,12090205000061,94.798991105499994,12,TX,1, , ,MJS 10/30/2017,okay, , ,OK, 
08189300,"Medio Ck nr Beeville, TX",CrestStage,28.483051639999999,-97.656662999999995,528.357572000000005,28.482841323599999,-97.657015278499998,5289427,87.867378020399997,12100406000087,87.867378020399997,12,TX,1, , , , , , ,AutoRef, 
08154700,"Bull Ck at Loop 360 nr Austin, TX",ContGage,30.372148249999999,-97.784730100000004,57.756734999999999,30.372144116699999,-97.784719606300001,5781189,82.888522014200007,12090205000018,41.932399802100001,12,TX,1, , ,MJS 10/30/2017,okay, , ,OK, 
08206600,"Frio Rv at Tilden, TX",ContGage,28.467492790000001,-98.547517400000004,11636.816532999999254,28.466736879399999,-98.547059299300003,10664196,94.647312673499997,12110108000010,94.647312673499997,12,TX,0,SEJ 8/17/17,Moved to GageLoc location. COMID 10664196..,MJS 10/26/2017,agree with move, , ,Move,10664192
08167500,"Guadalupe Rv nr Spring Branch, TX",ContGage,29.860495700000001,-98.383627500000003,3405.834351999999853,29.860676529700001,-98.383688140900006,3589120,64.070895294500005,12100201000006,64.070895294500005,12,TX,1, , , , , , ,AutoRef, 
08178100,"San Pedro Ck at Santa Rosa St, San Antonio, TX",CrestStage,29.431361100000000,-98.497111099999998,4.739678000000000,29.430033087700000,-98.492893490900002,10840810,4.245115309230000,12100301000187,2.885840000000000,12,TX,0,SEJ 9/20/17,Okay., , , , ,OK, 
08074780,"Keegans Bayou at Keegan Rd nr Houston, TX",CrestStage,29.665510170000001,-95.595222800000002,22.351597000000002,29.665831346099999,-95.595236104600005,1440395,62.218999837699997,12040104000088,29.794333366000000,12,TX,1, , ,MJS 10/30/2017,okay, , ,OK, 
08178000,"San Antonio Rv at San Antonio, TX",CrestStage,29.409677960000000,-98.495017000000004,108.261503000000005,29.409849674499998,-98.494700982300003,10840818,66.213628335799996,12100301000190,66.213628335799996,12,TX,1, , ,MJS 10/30/2017,okay, , ,OK, 
08104900,"S Fk San Gabriel Rv at Georgetown, TX",CrestStage,30.625749899999999,-97.691120400000003,344.468416999999988,30.626062661799999,-97.691129735800004,5671579,16.113131082500001,12070205000491,16.113131082500001,12,TX,1, , ,MJS 10/30/2017,okay, , ,OK, 
08075400,"Sims Bayou at Hiram Clarke St, Houston, TX",CrestStage,29.618843989999998,-95.446052199999997,52.317760000000000,29.618834266200000,-95.446047970500004,1439761,84.458730507400006,12040104000670,83.586804594100002,12,TX,1, , ,MJS 10/27/2017,okay, , ,OK, 
08211500,"Nueces Rv at Calallen, TX",CrestStage,27.883076970000001,-97.625273000000007,43211.361460000000079,27.882954898000001,-97.625924534999996,3171902,28.079007453700001,12110111000002,8.327497750179999,12,TX,1, , , , , , ,AutoRef, 
08114000,"Brazos Rv at Richmond, TX",CrestStage,29.582458899999999,-95.757727500000001,116826.593227000004845,29.582567924999999,-95.757615779999995,3123784,93.628952258699996,12070104000662,96.783229325700006,12,TX,1, , , , , , ,AutoRef, 
08067650,"W Fk San Jacinto Rv bl Lk Conroe nr Conroe, TX",CrestStage,30.342152890000001,-95.542997999999997,1168.084632999999940,30.342105422600000,-95.542670671400003,1467944,3.733073141500000,12040101000029,3.733073141500000,12,TX,1, , ,MJS 10/30/2017,okay, , ,OK, 
08177700,"Olmos Ck at Dresden Dr, San Antonio, TX",CrestStage,29.499119199999999,-98.510295799999994,54.907747999999998,29.499185687099999,-98.510556297199997,10840810,99.144641427899998,12100301000187,67.398775104300000,12,TX,0,"JAF, 12/21/2015",OK. ComID is correct: GNIS_name in NHDPlus is at odds with topo map, , , , ,OK, 
08075650,"Berry Bayou at Forest Oaks St, Houston, TX",CrestStage,29.676618749999999,-95.243823800000001,27.712872999999998,29.676695326099999,-95.243815527500004,1440391,80.936203299200002,12040104000677,51.553884853800000,12,TX,0,SEJ 9/20/17,Okay., , , , ,OK, 
08151500,"Llano Rv at Llano, TX",ContGage,30.751289900000000,-98.669759900000003,10870.180055999999240,30.751505844299999,-98.669751105200007,5771725,67.951303576300006,12090204000060,68.828893030499998,12,TX,1, , , , , , ,AutoRef, 
08105000,"San Gabriel Rv at Georgetown, TX",ContGage,30.654082400000000,-97.655286300000000,1048.945181000000048,30.653655963399999,-97.655531966400005,5670913,35.320638573300002,12070205000052,35.320638573300002,12,TX,1,"JAF, 12/21/2015 --> LH 7/11/2017",OK., , , , ,OK, 
08078000,"Chocolate Bayou nr Alvin, TX",CrestStage,29.371543490000001,-95.323047599999995,227.141955999999993,29.369866297600002,-95.320680193399994,1566188,93.797153072000000,12040204000149,93.797153072000000,12,TX,1,SEJ 8/17/17,Moved to GageLoc location. COMID 1566188.,MJS 10/30/2017,further downstream but relatively close to correct gage location. okay, , ,Move,1566182
08172400,"Plum Ck at Lockhart, TX",ContGage,29.922998329999999,-97.679166699999996,290.078666999999996,29.923128372200001,-97.679174551399996,1631087,93.684481140900004,12100203000028,94.985309401500004,12,TX,1, , ,MJS 10/30/2017,okay, , ,OK, 
08182400,"Calaveras Ck SWS No. 6 nr Elmendorf, TX",CrestStage,29.380513149999999,-98.292789799999994,18.155816999999999,29.380585803900001,-98.292729707500001,10840828,99.019365840000006,12100301000011,47.133129022399999,12,TX,0,SEJ 9/20/17,Okay., , , , ,OK, 
08172000,"San Marcos Rv at Luling, TX",CrestStage,29.666340370000000,-97.650831400000001,2170.410027999999784,29.666218928199999,-97.650943660600007,1631387,80.208005543900001,12100203000050,80.208005543900001,12,TX,1, , ,MJS 10/30/2017,okay, , ,OK, 
08047500,"Clear Fk Trinity Rv at Ft Worth, TX",CrestStage,32.732353000000003,-97.358906300000001,1341.613835999999992,32.732436026000002,-97.358793536999997,1268904,30.745957016900000,12030102000034,30.745957016900000,12,TX,1, , , , , , ,AutoRef, 
08098300,"Little Pond Ck nr Burlington, TX",ContGage,31.026573140000000,-96.988321400000004,59.569726000000003,31.026351859199998,-96.988511647199999,5555300,76.257225887999994,12070101000338,77.662658211799993,12,TX,1, , , , , , ,AutoRef, 
08033500,"Neches Rv nr Rockland, TX",ContGage,31.024999999999999,-94.399444399999993,9417.196732000000338,31.025146179699998,-94.399491041800005,1109655,68.708028709100006,12020003000101,68.708028709100006,12,TX,1, , , , , , ,AutoRef, 
08063800,"Waxahachie Ck nr Bardwell, TX",ContGage,32.243480699999999,-96.640267600000001,461.017881999999986,32.243557935100000,-96.640252153000006,1446926,65.083283048200002,12030109000002,65.083283048200002,12,TX,1, , , , , , ,AutoRef, 
08100000,"Leon Rv nr Hamilton, TX",CrestStage,31.788763249999999,-98.121423800000002,4897.667497000000367,31.788573284000002,-98.120620424799995,2569332,48.516930000000002,12070201000050,48.516930000000002,12,TX,1, , ,MJS 10/30/2017,okay, , ,OK, 
08039500,"Angelina Rv nr Ebenezer, TX",CrestStage,31.015196639999999,-94.152137199999999,9028.698517000000720,31.014922297399998,-94.152381351399995,1159703,7.008154668480000,12020005000591,7.008154668480000,12,TX,1, , , , , , ,AutoRef, 
08104100,"Lampasas Rv nr Belton, TX",CrestStage,31.001848500000001,-97.492508799999996,3421.374279999999999,31.002092540800000,-97.492264378300007,5587556,5.170301733790000,12070203000004,11.963645277400000,12,TX,1, , ,MJS 10/30/2017,okay, , ,OK, 
08103800,"Lampasas Rv nr Kempner, TX",CrestStage,31.079340299999998,-98.016691899999998,2118.610266000000138,31.079813687000001,-98.016108504499996,5586798,32.017621241000001,12070203000028,32.017621241000001,12,TX,1, , , , , , ,AutoRef, 
08090800,"Brazos Rv nr Dennis, TX",ContGage,32.615689070000002,-97.925870300000000,65363.529679999999644,32.615761011499998,-97.925890804100007,5498058,86.604459300800002,12060201000027,15.626657483300001,12,TX,0,SEJ 9/6/17,Okay., , , , ,OK, 
08104500,"Little Rv nr Little River, TX",CrestStage,30.966572299999999,-97.346113000000003,13540.457786999999371,30.966656590500001,-97.346094394900007,5592244,31.879822278599999,12070204000331,31.879822278599999,12,TX,1, , , , , , ,AutoRef, 
08104000,"Lampasas Rv at Youngsport, TX",CrestStage,30.957402980000001,-97.708626199999998,3211.585243999999875,30.957011929299998,-97.708538866500007,5588580,68.119479290900003,12070203000007,68.119479290900003,12,TX,1, , , , , , ,AutoRef, 
08094500,"Green Ck nr Alexander, TX",CrestStage,32.074033000000000,-98.229762899999997,117.585459999999998,32.074024501600000,-98.229750812700004,5529946,20.790548285000000,12060204000088,20.790548285000000,12,TX,1, , , , , , ,AutoRef, 
08028000,"Bayou Anacoco near Rosepine, LA",ContGage,30.952970380000000,-93.352943800000006,945.345656999999960,30.953009711800000,-93.353733754299995,8330660,98.975222806600001,12010005000060,98.975222806600001,12,LA,0,SEJ 8/17/17,Moved to GageLoc location. COMID 8330660.,PE 12/4/2017,Agree, , ,Move,8330314
08103900,"S Fk Rocky Ck nr Briggs, TX",ContGage,30.911568050000000,-98.036967599999997,86.246604000000005,30.911701004600001,-98.036788954599999,5587890,12.103679195400000,12070203000167,12.103679195400000,12,TX,1, , , , , , ,AutoRef, 
08065000,"Trinity Rv nr Oakwood, TX",CrestStage,31.648505969999999,-95.789402899999999,33237.317286999998032,31.648471848400000,-95.789741331200005,1453127,98.354761145599994,12030201000087,98.354761145599994,12,TX,1, , , , , , ,AutoRef, 
08066170,"Kickapoo Ck nr Onalaska, TX",ContGage,30.907132399999998,-95.088546800000003,147.629322000000002,30.907116287499999,-95.088550072900006,1491130,38.535747904099999,12030202000067,38.535747904099999,12,TX,1, , , , , , ,AutoRef, 
08089000,"Brazos Rv nr Palo Pinto, TX",ContGage,32.862623599999999,-98.302549200000001,61670.206648999999743,32.862843281499998,-98.302553645499998,5497132,88.097685940000005,12060201000109,88.097685940000005,12,TX,0,SEJ 9/6/17,Okay., , , , ,OK, 
08080600,"RUNNING WATER DRAW NEAR CLOVIS, NM",CrestStage,34.530833299999998,-103.199722199999997,282.308702999999980,34.531007959400000,-103.199644027999994,13667051,68.912571323899996,12050005000023,68.912571323899996,12,NM,0,SEJ 9/20/17,Okay., , , , ,OK, 
08049700,"Walnut Ck nr Mansfield, TX",ContGage,32.580969500000002,-97.101953300000005,162.651252999999997,32.580842562199997,-97.101950603600002,1268648,80.129248168499998,12030102000113,80.129248168499998,12,TX,1, , , , , , ,AutoRef, 
08079300,"BLACKWATER DRAW TRIB NR FLOYD, NM",CrestStage,34.247855100000002,-103.748018000000002,25.899881000000001,-9999.000000000000000,-9999.000000000000000,-9999,-9999.000000000000000,-9999,-9999.000000000000000,12,NM,0,SEJ 9/20/17,Drop. Not represented in NHDPlus.,AT 11/1/2017,"Drop, Don't believe his is located correctly, data report puts it in section 13.  But do not see any ""Blackwater Draw"" so not sure where it should be.",Drop. NHDPlus is not representative., ,Drop, 
08080700,"Running Water Draw at Plainview, TX",CrestStage,34.178960480000001,-101.702674799999997,3343.674637000000075,34.178776402700002,-101.702633864000006,13676139,93.707669943499994,12050005000002,99.652503555699994,12,TX,1, , ,MJS 10/30/2017,okay, , ,OK, 
08023000,"BYU CASTOR NR LOGANSPORT, LA",CrestStage,31.973778029999998,-93.969633799999997,249.933852000000002,31.973677533499998,-93.970355971700002,9533085,47.917906729000002,12010004000064,48.646929657000001,12,LA,1, , , , , , ,AutoRef, 
08082500,"Brazos Rv at Seymour, TX",ContGage,33.580927660000000,-99.267575600000001,40243.235097999997379,33.580925968499997,-99.267690946000002,5539988,71.624146730800007,12060101000037,71.624146730800007,12,TX,0,SEJ 9/6/17,Okay., , , , ,OK, 
08065200,"Upper Keechi Ck nr Oakwood, TX",ContGage,31.569896180000001,-95.888293800000000,388.498215000000016,31.569881961400000,-95.888295854800006,1453353,97.134273730100006,12030201000268,97.134273730100006,12,TX,1,"JAF, 12/21/2015 --> LH 7/11/2017",OK. Water-year summary says 20 ft downstream from bridge on U.S. Highway 79.,MJS 10/26/2017,okay, , ,OK, 
08037000,"Angelina Rv nr Lufkin, TX",ContGage,31.457404470000000,-94.726320599999994,4143.980959999999868,31.457208285000000,-94.726394584800005,1152351,6.487554446440000,12020004000715,6.487554446440000,12,TX,1, , , , , , ,AutoRef, 
08017500,"Sabine Rv nr Emory, TX",ContGage,32.773181129999998,-95.799130700000006,2299.909432999999808,32.773680035200002,-95.798919576100005,5255921,70.539757588800001,12010001000475,70.539757588800001,12,TX,0,"JAF, 12/21/2015",OK,MJS 10/26/2017,okay, , ,OK, 
08081500,"Salt Croton Ck nr Aspermont, TX",ContGage,33.400921689999997,-100.408445400000005,166.536235000000005,33.400835571099996,-100.408544676999995,14034469,90.904606821100003,12050007000026,90.904606821100003,12,TX,1, , ,MJS 10/30/2017,okay, , ,OK, 
08026000,"Sabine Rv nr Burkeville, TX",CrestStage,31.064080040000000,-93.519616499999998,19378.290963999999803,31.064080505900002,-93.519538908800001,8329788,98.757058530099997,12010005000165,98.757058530099997,12,TX,1, , , , , , ,AutoRef, 
08022040,"Sabine Rv nr Beckville, TX",ContGage,32.327378869999997,-94.353530199999994,9295.467291000000841,32.328140759800000,-94.352843357899999,5278868,36.813257120999999,12010002000037,36.813257120999999,12,TX,1, , , , , , ,AutoRef, 
08082180,"N Croton Ck nr Knox City, TX",ContGage,33.383147960000002,-100.081211600000003,650.087012999999956,33.383284406100003,-100.081187288999999,5541354,96.543808568599999,12060101000083,96.543808568599999,12,TX,1, , , , , , ,AutoRef, 
08048800,"Big Fossil Ck at Haltom City, TX",CrestStage,32.807351460000000,-97.248625599999997,136.751372000000003,32.807514544599996,-97.248425253600004,1268884,37.794982243100002,12030102000016,37.794982243100002,12,TX,1, , , , , , ,AutoRef, 
08088100,"Salt Ck at Olney, TX",CrestStage,33.370385259999999,-98.744783699999999,30.561859999999999,33.370427364299999,-98.744746917900002,5494712,12.635525287900000,12060201000146,12.635525287900000,12,TX,1, , ,MJS 10/30/2017,okay, , ,OK, 
08020450,"Sabine Rv abv Longview, TX",ContGage,32.479870439999999,-94.804379999999995,7622.334977999999865,32.479790129000001,-94.804303908500003,5278688,68.059420661900006,12010002000069,68.059420661900006,12,TX,1, , , , , , ,AutoRef, 
08080950,"Duck Ck nr Girard, TX",ContGage,33.356201089999999,-100.705121000000005,1116.284871000000066,33.356150768699997,-100.705042421000002,14033921,83.142643399700006,12050007000112,83.142643399700006,12,TX,0,SEJ 9/6/17,Okay., , , , ,OK, 
08082000,"Salt Fk Brazos Rv nr Aspermont, TX",CrestStage,33.333980099999998,-100.238162200000005,13286.638952999999674,33.334011195800002,-100.238162662999997,14033905,88.216180833199999,12050007000019,88.216180833199999,12,TX,0,"JAF, 12/21/2015 --> LH 7/11/2017",OK. Water-year summary says on left bank at downstream side of bridge on U.S. Highway 83.,MJS 10/26/2017,okay, , ,OK, 
08110430,"Big Ck nr Freestone, TX",ContGage,31.506839599999999,-96.324695300000002,251.746843000000013,31.506523405100001,-96.325051093300004,5574947,41.289677233500001,12070103000125,53.550694071800002,12,TX,1, , , , , , ,AutoRef, 
08082700,"Millers Ck nr Munday, TX",ContGage,33.329266070000003,-99.465082499999994,269.358762000000013,33.329227200100000,-99.465062066300007,5542148,39.654347252800001,12060101000141,39.654347252800001,12,TX,1, , ,MJS 10/30/2017,okay, , ,OK, 
08097000,"Cow Bayou at Mooreville, TX",CrestStage,31.312673770000000,-97.138054499999996,216.264005999999995,31.312529369600000,-97.138101897799999,5553351,98.346935870400003,12070101000120,98.346935870400003,12,TX,0,SEJ 9/20/17,Okay., , , , ,OK, 
08050100,"Mountain Ck at Grand Prairie, TX",ContGage,32.747630850000000,-96.925838200000001,771.816454000000022,32.747647464400004,-96.926264141199994,1269870,61.527002726100001,12030102000103,61.527002726100001,12,TX,1, , , , , , ,AutoRef, 
08081200,"Croton Ck nr Jayton, TX",ContGage,33.288424999999997,-100.431500799999995,751.096548999999982,33.287914020000002,-100.431786578000001,14034011,41.435505425599999,12050007000038,41.435505425599999,12,TX,1, , , , , , ,AutoRef, 
08091750,"Squaw Ck nr Glen Rose, TX",CrestStage,32.270142300000003,-97.732527800000000,182.076163000000008,32.269960484899997,-97.732598899400003,5512356,44.449103594800000,12060202000097,44.449103594800000,12,TX,1, , , , , , ,AutoRef, 
08088300,"Briar Ck nr Graham, TX",ContGage,33.212056640000000,-98.618669499999996,62.677712000000000,33.212220340599998,-98.618676371199996,5494728,61.666721997800003,12060201000958,61.666721997800003,12,TX,1, , , , , , ,AutoRef, 
08064700,"Tehuacana Ck nr Streetman, TX",ContGage,31.848496380000000,-96.289975499999997,367.778309999999976,31.848572243000000,-96.290031530600004,1454931,40.120039408399997,12030201000216,40.120039408399997,12,TX,1, , , , , , ,AutoRef, 
08023270,"BULL BYU NR HUNTER, LA",CrestStage,31.886279550000001,-93.875187499999996,22.118497999999999,31.886471656900000,-93.837799705699993,9533185,32.769821162500001,12010004000570,18.416187269800002,12,LA,0,SEJ 9/13/17,Drop. Not represented in NHD,PE 12/4/2017,"Move to Lat Long of 31.886, -93.838 located on State Hwy 174 and Bull Bayou",Reviewer location COMID DA close to NWIS DA,NWIS location plots off by 2.3 miles too far west,Move,9533165
08081000,"Salt Fk Brazos Rv nr Peacock, TX",CrestStage,33.212038499999998,-100.431777999999994,11963.155033999999432,33.211485065700003,-100.433682836000003,14034497,95.046490683000002,12050007000088,95.046490683000002,12,TX,0,SEJ 9/6/17,Okay., , , , ,OK, 
08024400,"Sabine Rv nr Milam, TX",CrestStage,31.467124699999999,-93.744905200000005,16855.642554999998538,31.476034223799999,-93.729617626899994,9535703,76.547336410000000,12010004019654,76.547336410000000,12,TX,0,"LH, 10/27/2016",Move. Beyond initial seach radius of ~1km. Second time thru snapping routine on an edited location. Use resnap_append_all.shp for locations.,MJS 10/26/2017,okay, , ,Move,9535705
08027550,"PRAIRIE CK NR LEESVILLE, LA",CrestStage,31.177962999999998,-93.275165599999994,103.599524000000002,31.180331903999999,-93.282429612399994,8328650,13.800282297200001,12010005000116,13.800282297200001,12,LA,0,SEJ 9/20/17,Okay., , , , ,OK, 
08057410,"Trinity Rv bl Dallas, TX",ContGage,32.707631390000003,-96.735831899999994,16259.945292000000336,32.707707407900003,-96.735679642500003,1260375,93.934129599100004,12030105000049,93.934129599100004,12,TX,1, , , , , , ,AutoRef, 
08079600,"DMF Brazos Rv at Justiceburg, TX",ContGage,33.038432360000002,-101.197630200000006,3796.922555000000102,33.039035070399997,-101.198340364000003,13698835,46.467357304200000,12050004000150,46.467357304200000,12,TX,0,SEJ 9/6/17,Okay., , , , ,OK, 
08093700,"N Bosque Rv at Stephenville, TX",CrestStage,32.215695900000000,-98.198929800000002,248.379859000000010,32.215624820099997,-98.198910431800002,5529516,77.800707994000007,12060204000070,77.800707994000007,12,TX,1, , ,MJS 10/30/2017,okay, , ,OK, 
08088000,"Brazos Rv nr South Bend, TX",ContGage,33.024283769999997,-98.643948100000003,58722.800191000002087,33.023851431899999,-98.644615544600001,5494668,50.173037904899999,12060201001180,50.173037904899999,12,TX,0,SEJ 9/6/17,Okay., , , , ,OK, 
08023200,"Tenaha Ck nr Shelbyville, TX",CrestStage,31.765729140000001,-94.084083500000006,253.300836000000004,31.765657732499999,-94.084039750100004,9534889,56.664992531099998,12010004000107,56.664992531099998,12,TX,1, , , , , , ,AutoRef, 
08080500,"DMF Brazos Rv nr Aspermont, TX",ContGage,33.008157699999998,-100.180658899999997,22781.535328000001755,33.008493797800000,-100.180820909000005,13700459,93.873087108899995,12050004000031,93.901126313099994,12,TX,0,SEJ 9/6/17,Okay., , , , ,OK, 
08025850,"PEARL CK @ ST HWY #111 @ BURR FERRY, LA",CrestStage,31.075745950000002,-93.489615599999993,25.019285000000000,31.075461563000001,-93.489547041700007,8329590,38.277981256799997,12010005000925,38.277981256799997,12,LA,1, , , , , , ,AutoRef, 
08019500,"Big Sandy Ck nr Big Sandy, TX",ContGage,32.604029099999998,-95.091609899999995,598.287250999999969,32.604038616099999,-95.092398696199993,5275798,12.131060000000000,12010002000088,12.131060000000000,12,TX,1, , , , , , ,AutoRef, 
08087300,"Clear Fk Brazos Rv at Eliasville, TX",CrestStage,32.960117699999998,-98.766729799999993,14755.162206000000879,32.960474442600002,-98.766994580100004,5522448,31.515397492400002,12060104000005,31.515397492400002,12,TX,1, , ,MJS 10/27/2017,"wrong side of bridge, but relatively close to correct gage location. okay", , ,OK, 
08085500,"Clear Fk Brazos Rv at Ft Griffin, TX",ContGage,32.934555699999997,-99.224521499999994,10328.872542999999496,32.934585775800002,-99.224472704700005,5521636,90.874635449799996,12060104000035,90.874635449799996,12,TX,1, , , , , , ,AutoRef, 
08098290,"Brazos Rv nr Highbank, TX",ContGage,31.134070980000001,-96.824982599999998,78828.877812000006088,31.134195259599998,-96.824584013399999,5555562,87.900469416400000,12070101000994,73.715048583100000,12,TX,0,SEJ 9/6/17,Okay., , , , ,OK, 
08046000,"Clear Fk Trinity Rv nr Aledo, TX",ContGage,32.641244200000003,-97.564468000000005,650.087012999999956,32.641227197600003,-97.564324771399995,1268938,83.594055300899996,12030102000038,83.594055300899996,12,TX,1, , , , , , ,AutoRef, 
08084800,"California Ck nr Stamford, TX",ContGage,32.930944349999997,-99.642588000000003,1238.014312000000018,32.931106831500003,-99.642759343899996,5509690,83.916993140900004,12060103000060,83.916993140900004,12,TX,1, , , , , , ,AutoRef, 
08062700,"Trinity Rv at Trinidad, TX",ContGage,32.147652549999997,-96.102470800000006,22113.318397999999434,32.147647763300000,-96.102370340899995,1262643,25.412443508300001,12030105000016,18.447662739700000,12,TX,1, , , , , , ,AutoRef, 
08086500,"Hubbard Ck nr Breckenridge, TX",CrestStage,32.837062500000002,-98.948124600000000,2820.497041000000081,32.836845170200000,-98.948006468000003,5526143,94.168291468199996,12060105000004,94.168291468199996,12,TX,1, , ,MJS 10/30/2017,okay, , ,OK, 
08024030,"BAYOU SCIE AT ZWOLLE, LA.",CrestStage,31.629722200000000,-93.626944399999999,118.880454000000000,31.629722227700000,-93.626706665800000,9533675,42.914475657799997,12010004000008,42.914475657799997,12,LA,0,SEJ 9/13/17,Okay., , , , ,OK, 
08061700,"Duck Ck nr Garland, TX",ContGage,32.832904249999999,-96.595547999999994,81.843624000000005,32.833234470100003,-96.595549856000005,1293152,91.157984044200006,12030106000107,91.157984044200006,12,TX,0,SEJ 9/6/17,Okay., , , , ,OK, 
08062900,"Kings Ck nr Kaufman, TX",CrestStage,32.513471099999997,-96.329147899999995,603.467226999999980,32.513359273299997,-96.329267696200006,1297270,26.660607107899999,12030107000102,41.059014755000000,12,TX,1, , , , , , ,AutoRef, 
08088450,"Big Cedar Ck nr Ivan, TX",CrestStage,32.827621600000001,-98.723950900000006,251.228846000000004,32.827427145999998,-98.723539338699993,5496874,91.544798029899994,12060201000157,91.544798029899994,12,TX,0,SEJ 9/6/17,Okay., , , , ,OK, 
08083100,"Clear Fk Brazos Rv nr Roby, TX",ContGage,32.787607770000001,-100.388718299999994,590.517287000000010,32.787658419300001,-100.388741125999999,5488917,87.165143577500004,12060102000052,8.056020482290000,12,TX,1, , , , , , ,AutoRef, 
08022500,"Sabine Rv at Logansport, LA",CrestStage,31.972389490000001,-94.006301399999998,12540.722379999999248,31.971940401400001,-94.006746418399999,5280888,15.978019559100000,12010004020755,15.978019559100000,12,TX,1, , , , , , ,AutoRef, 
08086212,"Hubbard Ck bl Albany, TX",ContGage,32.732897170000001,-99.140629899999993,1587.662704999999960,32.732828663299998,-99.140573848800003,5525607,87.155890610800000,12060105000009,87.155890610800000,12,TX,1, , , , , , ,AutoRef, 
08022300,"Murvaul Bayou nr Gary, TX",CrestStage,32.048498500000001,-94.375477799999999,347.058404999999993,32.048531251500002,-94.375490822600000,5279634,54.740133604800000,12010002001106,54.740133604800000,12,TX,0,"JAF, 12/21/2015",OK., , , , ,OK, 
08086150,"N Fk Hubbard Ck nr Albany, TX",CrestStage,32.707619200000003,-99.275077800000005,101.786531999999994,32.707535719699997,-99.275105318599998,5525615,31.267932879300002,12060105000158,31.267932879300002,12,TX,1, , , , , , ,AutoRef, 
08024060,BLACKWELL CR AT MANY LA,CrestStage,31.580728650000001,-93.462675000000004,8.184362000000000,31.579957468300002,-93.462928997899994,9533495,24.106097012300001,12010004000185,24.106097012300001,12,LA,1, , , , , , ,AutoRef, 
08084000,"Clear Fk Brazos Rv at Nugent, TX",ContGage,32.690118599999998,-99.669532599999997,5695.383832000000439,32.690138239400000,-99.669549222300006,5489397,36.512809688600001,12060102000034,36.512809688600001,12,TX,1, , , , , , ,AutoRef, 
08017410,"Sabine Rv nr Wills Point, TX",ContGage,32.806235800000003,-95.919410900000003,1958.031003999999939,32.806473607999997,-95.919166256699995,5256789,82.214657896299997,12010001000048,82.758887586100002,12,TX,1, , , , , , ,AutoRef, 
08020900,"Sabine Rv bl Longview, TX",ContGage,32.416817930000001,-94.709932400000000,8171.412454999999682,32.416799530100000,-94.709909844600006,5279488,57.861300833100003,12010002000065,57.861300833100003,12,TX,1, , , , , , ,AutoRef, 
08086290,"Big Sandy Ck abv Breckenridge, TX",ContGage,32.648456130000000,-99.004514599999993,725.196668000000045,32.648264447899997,-99.004427084599996,5525073,83.160735332800002,12060105000076,93.853269305900000,12,TX,1, , ,MJS 10/30/2017,okay, , ,OK, 
08117995,"Colorado Rv nr Gail, TX",ContGage,32.628720800000004,-101.285404400000004,1289.814073999999891,32.628529663499997,-101.285370925999999,5633401,15.568835944800000,12080002000129,15.568835944800000,12,TX,0,SEJ 9/6/17,Okay., , , , ,OK, 
08063100,"Richland Ck nr Dawson, TX",ContGage,31.938490800000000,-96.681378699999996,862.466037000000028,31.938222190400001,-96.681499111199997,4133253,78.379849902800004,12030108000039,78.379849902800004,12,TX,1, , , , , , ,AutoRef, 
08083240,"Clear Fk Brazos Rv at Hwy 83 nr Hawley, TX",ContGage,32.898555490000000,-99.814871100000005,3667.423150000000078,32.598429535299999,-99.814724437799995,5489939,60.856479075899998,12060102000037,60.856479075899998,12,TX,0,SEJ 8/17/17,Moved 20 miles south to GageLoc location. COMID 5489939. Lat/long was wrong in NWIS.,MJS 10/26/2017,okay, , ,Move,5509300
08026700,"W ANACOCO CK NR HORNBECK, LA",CrestStage,31.300182060000001,-93.369614200000001,57.497736000000003,31.299451712700002,-93.369112587800004,8328408,36.163601565699999,12010005000150,36.163601565699999,12,LA,1, , , , , , ,AutoRef, 
08120500,"Deep Ck nr Dunn, TX",CrestStage,32.573723680000001,-100.907894099999993,512.817643999999973,32.573702252799997,-100.907912874999994,5633615,30.316066965800001,12080002000036,30.316066965800001,12,TX,1, , , , , , ,AutoRef, 
08096500,"Brazos Rv at Waco, TX",ContGage,31.536000560000002,-97.073332500000006,76557.458247999995365,31.535763529099999,-97.073745545799994,5513784,20.307550543700000,12060202000029,20.307550543700000,12,TX,0,SEJ 9/6/17,Okay., , , , ,OK, 
08083245,"Mulberry Ck nr Hawley, TX",ContGage,32.567899099999998,-99.792590899999993,530.947560999999951,32.567397948599996,-99.792417715799999,5489459,24.344882264900001,12060102000114,24.344882264900001,12,TX,1, , , , , , ,AutoRef, 
08039100,"Ayish Bayou nr San Augustine, TX",CrestStage,31.396295970000001,-94.151028900000000,230.508940999999993,31.396096217899998,-94.150786897600000,1159329,53.657049999999998,12020005000030,53.657049999999998,12,TX,1, , , , , , ,AutoRef, 
08019000,"Lake Fk Ck nr Quitman, TX",ContGage,32.763183859999998,-95.463009400000004,1515.143039000000044,32.762784086600000,-95.462921003399998,5293833,83.556603240100003,12010003000015,83.556603240100003,12,TX,1, , , , , , ,AutoRef, 
08086050,"Deep Ck at Moran, TX",CrestStage,32.559290849999996,-99.170074000000000,608.647203999999988,32.559154438100002,-99.169947874399995,5525639,41.535344544799997,12060105000045,41.535344544799997,12,TX,1, , , , , , ,AutoRef, 
08119500,"Colorado Rv at Hwy 350 nr Ira, TX",ContGage,32.539152780000002,-101.055222200000003,9020.928551999999399,32.539204871199999,-101.055200639999995,5633425,73.003907792000007,12080002000051,73.003907792000007,12,TX,0,SEJ 9/6/17,Okay., , , , ,OK, 
08023400,"Bayou San Patricio near Benson, LA",CrestStage,31.875166700000001,-93.658514990000000,207.717046000000011,31.875285209800001,-93.659157303399994,9533201,71.616541475800005,12010004000030,71.616541475800005,12,LA,1, , , , , , ,AutoRef, 
08120700,"Colorado Rv nr Cuthbert, TX",ContGage,32.477337450000000,-100.949838200000002,10132.033446999999796,32.477440778199998,-100.949947617999996,5635789,40.677840922500003,12080002000033,29.526206087199999,12,TX,0,SEJ 9/6/17,Okay., , , , ,OK, 
08083420,"Cat Claw Ck at Abilene, TX",ContGage,32.475402189999997,-99.749255599999998,33.669845000000002,32.475049163999998,-99.749456292000005,5491645,13.339962714400000,12060102000257,13.339962714400000,12,TX,1, , ,MJS 10/30/2017,okay, , ,OK, 
08110500,"Navasota Rv nr Easterly, TX",ContGage,31.170182050000001,-96.297742999999997,2507.108481000000211,31.170673792399999,-96.299009060200007,5575763,24.567455453200001,12070103000113,24.567455453200001,12,TX,1, , , , , , ,AutoRef, 
08047000,"Clear Fk Trinity Rv nr Benbrook, TX",ContGage,32.665132749999998,-97.441964200000001,1116.284871000000066,32.665201053600001,-97.442022045300007,1268934,33.136333614000002,12030102000036,33.136333614000002,12,TX,1, , , , , , ,AutoRef, 
08121000,"Colorado Rv at Colorado City, TX",ContGage,32.392618650000003,-100.878724599999998,10271.892804999999498,32.392947163099997,-100.878876168999994,5635847,36.325377240199998,12080002000029,36.325377240199998,12,TX,0,SEJ 9/6/17,Okay., , , , ,OK, 
08147000,"Colorado Rv nr San Saba, TX",CrestStage,31.217945149999998,-98.564483999999993,80851.658517999996548,31.218020080399999,-98.564694652599997,5756726,29.303272166100001,12090201000026,29.303272166100001,12,TX,1, , , , , , ,AutoRef, 
08095200,"N Bosque Rv at Valley Mills, TX",CrestStage,31.669605749999999,-97.469460200000000,2968.126362999999856,31.669695018300001,-97.469437998600000,5531474,86.497833553500001,12060204000005,86.497833553500001,12,TX,1, , , , , , ,AutoRef, 
08093100,"Brazos Rv nr Aquilla, TX",ContGage,31.812382199999998,-97.297788199999999,70561.635796000002301,31.811861800399999,-97.297193495900004,5513718,55.231186143800002,12060202000059,78.920974493100005,12,TX,0,SEJ 9/6/17,Okay., , , , ,OK, 
08090500,"Palo Pinto Ck nr Santo, TX",CrestStage,32.630963999999999,-98.180878100000001,1484.063180999999986,32.630773482700000,-98.181098224699994,5496388,91.471029999999999,12060201000216,91.471029999999999,12,TX,1, , , , , , ,AutoRef, 
08123650,"Beals Ck abv Big Spring, TX",CrestStage,32.250397970000002,-101.490958100000000,24136.099104000000807,32.250506644799998,-101.490925884999996,5714085,97.963610818500001,12080007000024,97.963610818500001,12,TX,0,SEJ 9/6/17,Okay., , , , ,OK, 
08123800,"Beals Ck nr Westbrook, TX",ContGage,32.199291299999999,-101.014002899999994,25387.063355999998748,32.199116299099998,-101.014018696999997,5714835,79.580418727500003,12080007000004,91.038094898400004,12,TX,0,SEJ 9/6/17,Okay., , , , ,OK, 
08099100,"Leon Rv nr De Leon, TX",CrestStage,32.173750200000001,-98.533105800000001,1240.604299999999967,32.173132663700002,-98.533447864799996,2567762,13.522754748200001,12070201000111,13.522754748200001,12,TX,1, , , , , , ,AutoRef, 
08095600,"Bosque Rv nr Waco, TX",CrestStage,31.601275970000000,-97.193616500000005,4289.020293999999922,31.601172751400000,-97.193576227899996,5523992,93.289904261399997,12060203000001,72.371014592400002,12,TX,1, , ,MJS 10/30/2017,okay, , ,OK, 
08099300,"Sabana Rv nr De Leon, TX",CrestStage,32.114029570000000,-98.605606699999996,683.756857999999966,32.114031906599998,-98.605636511300006,2567906,56.162053269499999,12070201000184,56.162053269499999,12,TX,1, , , , , , ,AutoRef, 
08123850,"Colorado Rv abv Silver, TX",ContGage,32.053743990000001,-100.762051999999997,38616.722570999998425,32.053585842899999,-100.762052156999999,5721925,88.652125500699995,12080008000058,88.652125500699995,12,TX,0,SEJ 9/13/17,Okay., , , , ,OK, 
08049600,"Mountain Ck nr Cedar Hill, TX",ContGage,32.584302500000000,-97.023339699999994,308.208583999999973,32.584264516200001,-97.023264531999999,1268626,96.747664923900004,12030102000122,96.747664923900004,12,TX,1, , , , , , ,AutoRef, 
08124000,"Colorado Rv at Robert Lee, TX",ContGage,31.885421680000000,-100.480654299999998,39644.947847000003094,31.885577471700000,-100.480699557999998,5722265,12.016449931200000,12080008000039,12.016449931200000,12,TX,0,SEJ 9/13/17,Okay., , , , ,OK, 
08034500,"Mud Ck nr Jacksonville, TX",ContGage,31.976555780000002,-95.160778699999995,973.835525999999959,31.976599028999999,-95.160677464100004,1151409,32.869861240299997,12020004000180,32.869861240299997,12,TX,1, , , , , , ,AutoRef, 
08142000,"Hords Ck nr Coleman, TX",CrestStage,31.846666670000001,-99.424694400000007,277.128727000000026,31.847030526899999,-99.423232181600000,5741912,67.561152456000002,12090108000068,67.561152456000002,12,TX,0,SEJ 9/13/17,Okay., , , , ,OK, 
08110325,"Navasota Rv abv Groesbeck, TX",CrestStage,31.574336570000000,-96.520814000000001,619.007156000000009,31.574474581099999,-96.520643680899994,5575031,76.723938553500005,12070103000146,76.723938553500005,12,TX,1, , , , , , ,AutoRef, 
08061750,"E Fk Trinity Rv nr Forney, TX",ContGage,32.774294699999999,-96.503599100000002,2895.606695999999829,32.774457922800003,-96.501224384200000,1293162,99.459270691499995,12030106000328,52.476232943699998,12,TX,1,SEJ 8/17/17,Moved to GageLoc location. COMID 1293162.,MJS 10/26/2017,agree with move, , ,Move,1293064
08141500,"Hords Ck nr Valera, TX",ContGage,31.834312050000001,-99.534791100000007,140.377354999999994,31.834347203400000,-99.534658865799997,5741628,32.507832367699997,12090108000072,32.507832367699997,12,TX,1, , , , , , ,AutoRef, 
08063000,"Cedar Ck nr Mabank, TX",CrestStage,32.329311250000003,-96.168307799999994,1898.461277000000109,32.340209410100002,-96.178613663600004,1300566,44.627898437100001,12030107023888,44.627898437100001,12,TX,0,SEJ 9/6/17,Moved onto Cedar Creek COMID 1300566. Gageloc is wrong.,MJS 10/26/2017,agree with move, , ,Move,1300580
08032000,"Neches Rv nr Neches, TX",ContGage,31.892390370000001,-95.430785999999998,2965.536375000000135,31.892269406099999,-95.431094930100002,4452936,88.308179650200003,12020001000112,88.308179650200003,12,TX,1, , , , , , ,AutoRef, 
08049580,"Mountain Ck nr Venus, TX",CrestStage,32.490972370000001,-97.123064600000006,66.044696999999999,32.491242816200000,-97.123087026400000,1270482,71.406428745499994,12030102000130,81.781139999999994,12,TX,1, , , , , , ,AutoRef, 
08133500,"N Concho Rv at Sterling City, TX",CrestStage,31.830139180000000,-100.993721500000007,1522.913002999999890,31.829996725200001,-100.993660333999998,5711823,70.705042014200004,12090104000032,35.697017183299998,12,TX,1, , , , , , ,AutoRef, 
08099500,"Leon Rv nr Hasse, TX",ContGage,31.957923500000000,-98.459211600000003,3265.974994000000152,31.957785359500001,-98.459355324200004,2569756,8.816127404690000,12070201000084,8.816127404690000,12,TX,1, , , , , , ,AutoRef, 
08095300,"Middle Bosque Rv nr McGregor, TX",CrestStage,31.509331790000001,-97.365844999999993,471.377834000000007,31.509343465299999,-97.365841179200004,5523936,91.178083397699993,12060203000010,97.019007333499999,12,TX,1, , , , , , ,AutoRef, 
08127000,"Elm Ck at Ballinger, TX",ContGage,31.749316969999999,-99.947863600000005,1165.494644999999991,31.749687712800000,-99.947863890999997,5656750,49.035724886700002,12090101000031,49.035724886700002,12,TX,1, , , , , , ,AutoRef, 
08048543,"W Fk Trinity Rv at Beach St, Ft Worth, TX",ContGage,32.751797199999999,-97.289459800000003,6954.118048999999701,32.752018282500003,-97.289480826100004,1268426,47.784920000000000,12030102000356,47.784920000000000,12,TX,0,"LH, 8/16/2016",OK. Water-year summary says on downstream side of bridge on Beach Street and 0.9 mi downstream from Riverside Drive bridge.,MJS 10/26/2017,okay, , ,OK, 
08126500,"Colorado Rv at Ballinger, TX",ContGage,31.732928640000001,-99.953974400000007,42509.474685000001045,31.732887856000001,-99.953974373600005,5656432,57.008257320399998,12090101000071,57.008257320399998,12,TX,0,SEJ 9/20/17,Okay., , , , ,OK, 
08143500,"Pecan Bayou at Brownwood, TX",CrestStage,31.731818740000001,-98.973938799999999,4299.380245999999715,31.732226271799998,-98.974009784299994,5736533,57.767750779899998,12090107000022,57.767750779899998,12,TX,1, , , , , , ,AutoRef, 
08033900,"E Fk Angelina Rv nr Cushing, TX",ContGage,31.860171690000001,-94.823269699999997,409.218119999999999,31.860392725400001,-94.823246017599999,1149925,94.710962076900003,12020004000076,94.710962076900003,12,TX,1, , , , , , ,AutoRef, 
08126380,"Colorado Rv nr Ballinger, TX",ContGage,31.715429730000000,-100.026475500000004,42367.025340000000142,31.714671532200001,-100.026587061000001,5654720,50.949296031300001,12090101000075,50.949296031300001,12,TX,0,SEJ 9/13/17,Okay., , , , ,OK, 
08033300,"Piney Ck nr Groveton, TX",ContGage,31.140462140000000,-95.086602099999993,204.609059999999999,31.140435815499998,-95.086634367000002,1080121,81.677606307000005,12020002000166,81.677606307000005,12,TX,1, , , , , , ,AutoRef, 
08134000,"N Concho Rv nr Carlsbad, TX",ContGage,31.592654899999999,-100.637044900000006,3278.924935000000005,31.592664038399999,-100.637040157000001,5711941,69.201021751499994,12090104000015,69.201021751499994,12,TX,1, , , , , , ,AutoRef, 
08137500,"Mukewater Ck at Trickham, TX",CrestStage,31.590155450000001,-99.226997299999994,181.299167000000011,31.589961813900000,-99.227282603000006,5726367,52.094945109299999,12090106000064,52.094945109299999,12,TX,1, , , , , , ,AutoRef, 
08091500,"Paluxy Rv at Glen Rose, TX",CrestStage,32.231531660000002,-97.777251199999995,1061.895121000000017,32.231397688599998,-97.777342457000003,5512008,36.190240836900003,12060202000105,36.190240836900003,12,TX,1, , , , , , ,AutoRef, 
08143600,"Pecan Bayou nr Mullin, TX",ContGage,31.517386100000000,-98.740602999999993,5369.045331000000260,31.517431574800000,-98.740511187099997,5736179,24.789456563900000,12090107000007,24.789456563900000,12,TX,1, , , , , , ,AutoRef, 
08095000,"N Bosque Rv nr Clifton, TX",ContGage,31.785990999999999,-97.568074800000005,2507.108481000000211,31.786105534899999,-97.567485763299999,5531532,68.677423358300004,12060204000008,68.677423358300004,12,TX,1, , ,MJS 10/30/2017,okay, , ,OK, 
08065500,"Trinity Rv nr Midway, TX",ContGage,31.074629840000000,-95.699392200000005,37425.328045000002021,31.076856225800000,-95.698909837399995,1486156,48.519754438699998,12030202000199,45.428239557900000,12,TX,1, , , , , , ,AutoRef, 
08018500,"Sabine Rv nr Mineola, TX",ContGage,32.613746669999998,-95.485790100000003,3514.613851999999952,32.613533876100000,-95.485368586600003,5275740,73.918347052499996,12010002001151,73.918347052499996,12,TX,1, , , , , , ,AutoRef, 
08136500,"Concho Rv at Paint Rock, TX",CrestStage,31.515990800000001,-99.919522599999993,17026.581769000000349,31.515426774200002,-99.919865985399994,5718784,26.504455502999999,12090105000014,26.504455502999999,12,TX,1, , , , , , ,AutoRef, 
08136700,"Colorado Rv nr Stacy, TX",ContGage,31.493768979999999,-99.573953200000005,62659.582103000000643,31.493645698300000,-99.573926136599994,5727563,32.383022718500001,12090106000138,32.109421797899998,12,TX,0,SEJ 9/13/17,Okay., , , , ,OK, 
08092000,"Nolan Rv at Blum, TX",CrestStage,32.150705340000002,-97.402794000000000,730.376644000000056,32.150348183200002,-97.402688255000001,5512092,51.603515848599997,12060202000066,51.603515848599997,12,TX,1, , , , , , ,AutoRef, 
08138000,"Colorado Rv at Winchell, TX",CrestStage,31.467938069999999,-99.162272599999994,65213.310369999999239,31.467753976299999,-99.162225222299995,5727613,58.519151199400000,12090106000049,58.519151199400000,12,TX,0,SEJ 9/13/17,Okay., , , , ,OK, 
08135000,"N Concho Rv at San Angelo, TX",CrestStage,31.465994380000001,-100.447871199999994,3949.731852999999774,31.466079684000000,-100.447804532000006,5712857,25.255571125500001,12090104000184,48.485392175400001,12,TX,1, , ,MJS 10/30/2017,okay, , ,OK, 
08088610,"Brazos Rv nr Graford, TX",ContGage,32.858178539999997,-98.411719000000005,61113.359208000001672,32.858496404800000,-98.411495186699995,24943191,47.994812379400003,12060201001949,47.994812379400003,12,TX,0,SEJ 9/6/17,Okay., , , , ,OK, 
08136000,"Concho Rv at San Angelo, TX",ContGage,31.454605999999998,-100.410647400000002,14353.714050000000498,31.453320271300001,-100.410596631999994,5719546,59.696251168300002,12090105000173,59.696251168300002,12,TX,1, , ,MJS 10/30/2017,okay, , ,OK, 
08020000,"Sabine Rv nr Gladewater, TX",CrestStage,32.527089089999997,-94.960217499999999,7228.656786999999895,32.527089255000000,-94.960049362999996,5274290,84.377000453099996,12010002000072,92.983314079300001,12,TX,1, , , , , , ,AutoRef, 
08132500,"S Concho Rv at San Angelo, TX",CrestStage,31.445994989999999,-100.425370099999995,10385.852280999999493,31.446019768100001,-100.425272036999999,5702833,97.449807415400002,12090102000205,97.449807415400002,12,TX,1, , ,MJS 10/30/2017,okay, , ,OK, 
08128400,"Middle Concho Rv abv Tankersley, TX",CrestStage,31.427382640000001,-100.711212500000002,5397.535200000000259,31.426595759800001,-100.711029480999997,5707852,12.237138447800000,12090103000007,12.237138447800000,12,TX,1, , , , , , ,AutoRef, 
08140500,"Dry Prong Deep Ck nr Mercury, TX",ContGage,31.402661859999998,-99.137271900000002,21.522801000000001,31.402668435799999,-99.137036312399999,5728199,55.746384648599999,12090106000667,55.746384648599999,12,TX,1, , , , , , ,AutoRef, 
08095400,"Hog Ck nr Crawford, TX",CrestStage,31.555719900000000,-97.356400399999998,202.537069000000002,31.555708395200000,-97.356429952400006,5523974,38.204660152700001,12060203000003,38.204660152700001,12,TX,1, , , , , , ,AutoRef, 
08100500,"Leon Rv at Gatesville, TX",ContGage,31.434722200000000,-97.758333300000004,6065.752129999999852,31.435361793999999,-97.759244965700006,2572206,99.415704627699995,12070201000026,99.415704627699995,12,TX,1, , , , , , ,AutoRef, 
08049500,"W Fk Trinity Rv at Grand Prairie, TX",ContGage,32.762500000000003,-96.994444400000006,7938.313527000000249,32.762847662299997,-96.994438116599994,1269868,91.332771954999998,12030102000010,73.385891399100004,12,TX,1, , ,MJS 10/30/2017,okay, , ,OK, 
08139500,"Deep Ck nr Mercury, TX",CrestStage,31.402384200000000,-99.121716100000000,113.700478000000004,31.402029005999999,-99.121643558900004,5727751,49.859699071999998,12090106000660,49.859699071999998,12,TX,1, , , , , , ,AutoRef, 
08056500,"Turtle Ck at Dallas, TX",CrestStage,32.807350550000002,-96.802501300000003,20.668105000000001,32.807509061099999,-96.802785267700003,1260357,31.961293255299999,12030105000185,31.961293255299999,12,TX,1, , , , , , ,AutoRef, 
08062500,"Trinity Rv nr Rosser, TX",ContGage,32.426529879999997,-96.463041500000003,21100.633051000000705,32.426725906000001,-96.462955440700000,1262531,86.129842077399999,12030105000035,86.129842077399999,12,TX,1,"JAF, 12/21/2015 --> LH 7/11/2017",OK. Water-year summary says downstream side of bridge on highway 34.,MJS 10/26/2017,okay, , ,OK, 
08140000,"Deep Ck SWS No. 6 nr Mercury, TX",CrestStage,31.399606370000001,-99.137549600000000,14.011836000000001,31.399860617900000,-99.137243623200007,5728199,60.802639999999997,12090106000667,60.802639999999997,12,TX,0,SEJ 9/20/17,Okay., , , , ,OK, 
08063500,"Richland Ck nr Richland, TX",CrestStage,31.950713749999998,-96.421369999999996,1901.051265000000058,31.949781350199999,-96.421746077700007,4133603,31.928393778899999,12030108000022,31.928393778899999,12,TX,1, , , , , , ,AutoRef, 
08038000,"Attoyac Bayou nr Chireno, TX",CrestStage,31.504349569999999,-94.304367700000000,1302.764014000000088,31.504240906500002,-94.304116873599995,1157813,24.613813956500000,12020005000134,79.231422366999993,12,TX,1, , , , , , ,AutoRef, 
08128500,"Middle Concho Rv nr Tankersley, TX",ContGage,31.376551450000001,-100.614265000000003,6871.238428999999996,31.376562039200000,-100.614383728000007,5702929,47.210127941000003,12090103004876,47.210127941000003,12,TX,1, , , , , , ,AutoRef, 
08025500,"Bayou Toro near Toro, LA",ContGage,31.307127370000000,-93.515729500000006,383.318239000000005,31.307086715699999,-93.515704899799999,8329634,15.837090535400000,12010005001490,8.399703001200001,12,LA,1, , , , , , ,AutoRef, 
08045850,"Clear Fk Trinity Rv nr Weatherford, TX",CrestStage,32.740406989999997,-97.651971099999997,313.388559999999984,32.740401868699998,-97.652135017899994,1268504,98.643526354200006,12030102000042,98.643526354200006,12,TX,1, , ,MJS 10/30/2017,okay, , ,OK, 
08131000,"Spring Ck nr Tankersley, TX",ContGage,31.358496679999998,-100.535095799999993,1810.401681999999937,31.358710621699998,-100.539273924000000,5702875,12.012582714600001,12090102003766,12.012582714600001,12,TX,0,SEJ 8/17/17,Moved to GageLoc location. COMID 5702875.,MJS 10/26/2017,agree with move, , ,Move,5702933
08091000,"Brazos Rv nr Glen Rose, TX",ContGage,32.259031880000002,-97.702526800000001,66868.312766000002739,32.258736818400003,-97.702448419099994,5512484,33.034865151399998,12060202000641,33.034865151399998,12,TX,0,SEJ 9/6/17,Okay., , , , ,OK, 
08129300,"Spring Ck abv Tankersley, TX",CrestStage,31.330163960000000,-100.640376700000004,1100.744942999999921,31.330303390899999,-100.640253653000002,5702767,56.417072151600003,12090102000206,57.246038276500002,12,TX,1, , , , , , ,AutoRef, 
08066100,"White Rk Ck nr Trinity, TX",CrestStage,31.051850750000000,-95.377996400000001,574.977357999999981,31.052043343699999,-95.377754056800001,1485684,50.334924762199996,12030202000094,50.334924762199996,12,TX,1, , , , , , ,AutoRef, 
08031200,"Kickapoo Ck nr Brownsboro, TX",CrestStage,32.309592600000002,-95.605515800000006,600.877239000000031,32.308980015899998,-95.605540614999995,4451722,9.879423305070000,12020001000135,9.879423305070000,12,TX,1, , , , , , ,AutoRef, 
08064800,"Catfish Ck nr Tennessee Colony, TX",CrestStage,31.880998500000000,-95.868851399999997,536.127536999999961,31.881426443999999,-95.868989941999999,1453631,57.533897401799997,12030201000156,57.533897401799997,12,TX,1, , , , , , ,AutoRef, 
08131400,"Pecan Ck nr San Angelo, TX",CrestStage,31.309053559999999,-100.445925399999993,210.048034999999999,31.309083758700002,-100.445890609000003,5702253,50.369865267000002,12090102000022,50.369865267000002,12,TX,1, , ,MJS 10/30/2017,okay, , ,OK, 
08139000,"Deep Ck SWS No. 3 nr Placid, TX",CrestStage,31.290441860000001,-99.156438199999997,8.857759000000000,31.290457212100002,-99.156444667399995,5728251,98.319431452900005,12090106000670,98.319431452900005,12,TX,0,SEJ 9/20/17,Okay., , , , ,OK, 
08025360,"Sabine Rv at Toledo Bd Res nr Burkeville, TX",ContGage,31.173799100000000,-93.566007700000000,18590.934582000001683,31.173695193400000,-93.566113111299998,8328658,46.564687348699998,12010005000851,97.059796730800002,12,TX,1, , , , , , ,AutoRef, 
08057445,"Prairie Ck at US Hwy 175, Dallas, TX",ContGage,32.704853460000002,-96.669995499999999,23.387592999999999,32.704854984900003,-96.669962371899999,1260363,31.843019526100001,12030105000140,31.843019526100001,12,TX,1, , , , , , ,AutoRef, 
08130500,"Dove Ck at Knickerbocker, TX",CrestStage,31.274054650000000,-100.630931799999999,585.337311000000000,31.273898776500001,-100.630519675000002,5702799,8.045796606900000,12090102000112,8.045796606900000,12,TX,1, , , , , , ,AutoRef, 
08064100,"Chambers Ck nr Rice, TX",ContGage,32.198482300000002,-96.520263900000003,2090.120397000000139,32.197388883400002,-96.520765027300001,1446644,8.805800000000000,12030109000006,8.805800000000000,12,TX,1, , , , , , ,AutoRef, 
08146000,"San Saba Rv at San Saba, TX",ContGage,31.213223159999998,-98.719487099999995,7889.103753000000324,31.213168350000000,-98.719476820899999,5746512,59.031591555100000,12090109000008,59.031591555100000,12,TX,1, , , , , , ,AutoRef, 
08036500,"Angelina Rv nr Alto, TX",ContGage,31.671843639999999,-94.952715200000000,3304.824815999999828,31.671895356200000,-94.952597534600002,1150499,25.782582679600001,12020004000050,25.782582679600001,12,TX,1, , , , , , ,AutoRef, 
08127500,"S Concho Irrigation Co Canal at Christoval, TX",ContGage,31.188222939999999,-100.500094200000007,0.000000000000000,-9999.000000000000000,-9999.000000000000000,-9999,-9999.000000000000000,-9999,-9999.000000000000000,12,TX,0,SEJ 9/6/17,Drop. Uninitialized flowline., , ,Drop. NHDPlus is not representative. Uninitialized, ,Drop, 
08093500,"Aquilla Ck nr Aquilla, TX",CrestStage,31.844604140000001,-97.201396099999997,797.716334999999958,31.841522008799998,-97.197787798700006,166414856,76.689992637299994,12060202029280,76.689992637299994,12,TX,0,"LH, 8/16/2016","Move to 166414856. Note NHD flowlines very inaccurate here. Loc on topo is below confluence, so choose flowline below confluence. GageLoc is one more flowline downstream 5513408.",MJS 10/27/2017,agree with move, , ,Move,166414855
08128000,"S Concho Rv at Christoval, TX",CrestStage,31.187111860000002,-100.502038799999994,1069.665085000000090,31.187415005100000,-100.501940754000003,5702807,96.996134670299995,12090102000007,60.657871362700000,12,TX,1, , , , , , ,AutoRef, 
08144800,"Brady Ck nr Eden, TX",CrestStage,31.184332399999999,-99.841183000000001,261.588797999999997,31.185111972300000,-99.841288112699999,5753428,69.750433240400000,12090110000041,69.750433240400000,12,TX,1, , , , , , ,AutoRef, 
08033000,"Neches Rv nr Diboll, TX",CrestStage,31.132965739999999,-94.809930600000001,7055.127583999999842,31.133076125300001,-94.809851373200004,1079041,14.809472440900000,12020002000020,14.809472440900000,12,TX,1, , , , , , ,AutoRef, 
08062000,"E Fk Trinity Rv nr Crandall, TX",ContGage,32.638744199999998,-96.485265100000007,3253.025054000000182,32.638632031800000,-96.484897676200006,1293094,68.788376548299993,12030106000002,91.970151301800001,12,TX,1, , , , , , ,AutoRef, 
08145000,"Brady Ck at Brady, TX",CrestStage,31.138223660000001,-99.335055299999993,1522.913002999999890,31.137950824000001,-99.335094512300003,5753504,64.672235512800000,12090110000021,64.672235512800000,12,TX,1, , , , , , ,AutoRef, 
08064500,"Chambers Ck nr Corsicana, TX",CrestStage,32.108208169999997,-96.370813499999997,2494.158539999999903,32.108338971499997,-96.370440595100007,1446764,92.662269295200005,12030109000103,92.662269295200005,12,TX,1, , , , , , ,AutoRef, 
08037050,"Bayou Lanana at Nacogdoches, TX",ContGage,31.616290469999999,-94.641320500000006,81.066627999999994,31.616397460000002,-94.641564781900001,1158005,42.730758144500001,12020005000080,42.730758144500001,12,TX,1, , , , , , ,AutoRef, 
08144600,"San Saba Rv nr Brady, TX",CrestStage,31.004059500000000,-99.268943699999994,4229.450566999999864,31.003915366200001,-99.268877893400003,5745336,41.621299614400002,12090109000055,39.312603584000001,12,TX,1, , , , , , ,AutoRef, 
08062800,"Cedar Ck nr Kemp, TX",ContGage,32.503471290000000,-96.112750800000001,489.507750999999985,32.503680989000003,-96.112954594100003,1297176,8.839135190200000,12030107000052,29.755257217800001,12,TX,1, , , , , , ,AutoRef, 
08144500,"San Saba Rv at Menard, TX",CrestStage,30.919062449999998,-99.785625400000001,2939.636493999999857,30.919136706800000,-99.785618476400003,5747704,59.869267252599997,12090109000106,57.690923963600000,12,TX,1, , , , , , ,AutoRef, 
08102500,"Leon Rv nr Belton, TX",CrestStage,31.070179469999999,-97.441396699999999,9277.337374000000636,31.070069447300000,-97.441895608199999,2572116,97.610969735599994,12070201000006,97.610969735599994,12,TX,1, , ,MJS 10/30/2017,okay, , ,OK, 
08048970,"Village Ck at Everman, TX",ContGage,32.603469089999997,-97.265014199999996,218.853994000000000,32.603252690300003,-97.264918275499994,1268612,69.460279228999994,12030102000087,69.460279228999994,12,TX,1, , , , , , ,AutoRef, 
08144000,"Noyes Canal at Menard, TX",ContGage,30.916007000000000,-99.784236399999998,0.000000000000000,-9999.000000000000000,-9999.000000000000000,-9999,-9999.000000000000000,-9999,-9999.000000000000000,12,TX,0,SEJ 9/20/17,Drop. Not represented in NHDPlus., , ,Drop. NHDPlus is not representative., ,Drop, 
08065800,"Bedias Ck nr Madisonville, TX",ContGage,30.884722199999999,-95.777777799999996,831.386179999999968,30.884690044799999,-95.777763638699994,1491202,59.166779645299997,12030202000300,59.166779645299997,12,TX,1, , , , , , ,AutoRef, 
08094800,"N Bosque Rv at Hico, TX",CrestStage,31.976536599999999,-98.032812000000007,929.805728000000045,31.976874242600001,-98.032763323699996,5530672,57.670350852399999,12060204000051,57.670350852399999,12,TX,1, , ,MJS 10/30/2017,okay, , ,OK, 
08032500,"Neches Rv nr Alto, TX",CrestStage,31.579455690000000,-95.165996500000006,5037.526853999999730,31.579389317400000,-95.166008538599996,1077643,94.895390317299999,12020001023323,94.895390317299999,12,TX,1, , , , , , ,AutoRef, 
08111000,"Navasota Rv nr Bryan, TX",CrestStage,30.869635200000001,-96.192459200000002,3765.842697000000044,30.869627117200000,-96.192470228900007,5577277,88.585440430899993,12070103000095,88.585440430899993,12,TX,1, , ,MJS 10/30/2017,okay, , ,OK, 
08057000,"Trinity Rv at Dallas, TX",CrestStage,32.774851699999999,-96.821946400000002,15814.467339000000720,32.775751220600000,-96.820352015899999,942030011,18.890923334600000,12030105000058,18.540753623299999,12,TX,1, , , , , , ,AutoRef, 
08066000,"Trinity Rv at Riverside, TX",CrestStage,30.859355140000002,-95.398830000000004,40375.324490999999398,30.859926690999998,-95.398333403500004,1492784,75.162380784700005,12030202033051,75.162380784700005,12,TX,1, , , , , , ,AutoRef, 
08106500,"Little Rv nr Cameron, TX",CrestStage,30.835190470000001,-96.946651200000005,18298.265927000000374,30.835846885700001,-96.947048301099997,5593118,45.975286985600000,12070204000042,45.975286985600000,12,TX,1, , , , , , ,AutoRef, 
08029500,"Big Cow Ck nr Newton, TX",CrestStage,30.818888890000000,-93.785555599999995,331.518477000000019,30.818874244200000,-93.785593605399995,8330722,75.363231564700001,12010005000222,75.363231564700001,12,TX,1, , , , , , ,AutoRef, 
08093360,"Aquilla Ck abv Aquilla, TX",ContGage,31.895436199999999,-97.203063400000005,660.446965999999975,31.895450839900001,-97.202791571399999,166414852,39.522782981900001,12060202029276,39.522782981900001,12,TX,1, , , , , , ,AutoRef, 
08101000,"Cowhouse Ck at Pidcoke, TX",CrestStage,31.284890200000000,-97.885024400000006,1178.444584999999961,31.285848692599998,-97.885218145799996,2580511,96.236101743299997,12070202000015,96.236101743299997,12,TX,1, , , , , , ,AutoRef, 
08023080,"Bayou Grand Cane near Stanley, LA",ContGage,31.962722500000002,-93.941160900000000,187.774136999999996,31.962769621900001,-93.941197776799996,9533087,48.798880699900003,12010004000057,56.938378956299999,12,LA,1, , , , , , ,AutoRef, 
08040600,"Neches Rv nr Town Bluff, TX",CrestStage,30.791035789999999,-94.151023699999996,19616.569868999999017,30.790802490800001,-94.151005371699995,1111453,37.019955607199996,12020003000074,36.536822974600000,12,TX,1, , , , , , ,AutoRef, 
08065350,"Trinity Rv nr Crockett, TX",CrestStage,31.338513190000000,-95.656340700000001,36029.324459000003117,31.338480964500000,-95.657671753599999,1484774,68.340029844699998,12030202001922,68.340029844699998,12,TX,1, , , , , , ,AutoRef, 
08048000,"W Fk Trinity Rv at Ft Worth, TX",ContGage,32.760963369999999,-97.332516699999999,6772.818881999999576,32.760396898499998,-97.332038502600000,1268410,82.962784411300007,12030102000025,82.962784411300007,12,TX,1, , , , , , ,AutoRef, 
08106350,"Little Rv nr Rockdale, TX",CrestStage,30.760748360000001,-97.013875400000003,18023.727188000000751,30.760993049000000,-97.014179990499997,5592482,91.019893747899999,12070204000047,91.019893747899999,12,TX,1, , , , , , ,AutoRef, 
08022070,"Martin Ck nr Tatum, TX",ContGage,32.295712500000000,-94.491590400000007,383.318239000000005,32.296951066399998,-94.491961913200001,5279526,84.771949562499998,12010002000213,84.771949562499998,12,TX,1, , , , , , ,AutoRef, 
08028500,"Sabine Rv nr Bon Wier, TX",ContGage,30.747145570000001,-93.608508000000000,21313.012074999998731,30.747167457000000,-93.608255913099995,8330800,59.182556907799999,12010005000052,59.182556907799999,12,TX,1, , , , , , ,AutoRef, 
08028700,"HOOSIER CK NR MERRYVILLE, LA",CrestStage,30.725756100000002,-93.560173100000000,33.928843999999998,30.725780602099999,-93.560164892900005,8330716,20.134253848699998,12010005001210,20.134253848699998,12,LA,0,SEJ 9/6/17,Okay., , , , ,OK, 
08066200,"Long King Ck at Livingston, TX",CrestStage,30.716305999999999,-94.958823699999996,365.188322000000028,30.716540915800000,-94.959034033699993,1487570,79.551900530699996,12030202000026,79.551900530699996,12,TX,1, , , , , , ,AutoRef, 
08105700,"San Gabriel Rv at Laneport, TX",CrestStage,30.694361460000000,-97.278884899999994,1911.411217999999963,30.694526306699998,-97.278977880200003,5670795,43.469594457900001,12070205000023,43.469594457900001,12,TX,1, , , , , , ,AutoRef, 
08094000,"Green Ck SWS No. 1 nr Dublin, TX",CrestStage,32.165974040000002,-98.341433499999994,10.852050000000000,32.165418106600001,-98.341796181999996,5530012,5.032632531600000,12060204000095,5.032632531600000,12,TX,0,SEJ 9/20/17,Okay., , , , ,OK, 
08050400,"Elm Fk Trinity Rv at Gainesville, TX",ContGage,33.624274790000001,-97.156401599999995,450.657929000000024,33.624278956799998,-97.156024213500004,1274838,73.860072304799999,12030103000113,73.860072304799999,12,TX,1, , ,MJS 10/30/2017,okay, , ,OK, 
08050800,"Timber Ck nr Collinsville, TX",ContGage,33.554554279999998,-96.947226700000002,100.491538000000006,33.554560978799998,-96.947220767299996,1275870,58.826639254000000,12030103000074,58.826639254000000,12,TX,1, , , , , , ,AutoRef, 
08050840,"Range Ck nr Collinsville, TX",ContGage,33.526220160000001,-96.807219099999998,75.627652999999995,33.526372432899997,-96.807197747100005,1275872,52.516196593300002,12030103000069,52.516196593300002,12,TX,1, , , , , , ,AutoRef, 
08051000,"Isle Du Bois Ck nr Pilot Point, TX",CrestStage,33.406503100000002,-97.012785399999999,688.936834999999974,33.406760309100001,-97.012751081199994,1276672,37.465494573599997,12030103000057,21.202412744299998,12,TX,1, , , , , , ,AutoRef, 
08050500,"Elm Fk Trinity Rv nr Sanger, TX",CrestStage,33.386503470000001,-97.085010499999996,986.785466000000042,33.386487563000003,-97.085053258299993,1276758,79.021015026000001,12030103000092,79.021015026000001,12,TX,1, , , , , , ,AutoRef, 
08051500,"Clear Ck nr Sanger, TX",ContGage,33.336226900000000,-97.179458699999998,764.046489999999949,33.336510414899998,-97.179208492900003,1276892,92.682919999999996,12030103000166,92.682919999999996,12,TX,1, , , , , , ,AutoRef, 
08057500,"Honey Ck SWS No. 11 nr McKinney, TX",CrestStage,33.303447460000001,-96.689715800000002,5.542575000000000,-9999.000000000000000,-9999.000000000000000,-9999,-9999.000000000000000,-9999,-9999.000000000000000,12,TX,0,SEJ 9/20/17,Drop. Not represented in NHDPlus., , ,Drop. NHDPlus is not representative., ,Drop, 
08058000,"Honey Ck SWS No. 12 nr McKinney, TX",CrestStage,33.305669539999997,-96.670270599999995,3.263385000000000,-9999.000000000000000,-9999.000000000000000,-9999,-9999.000000000000000,-9999,-9999.000000000000000,12,TX,0,SEJ 9/20/17,Drop. Not represented in NHDPlus., , ,Drop. NHDPlus is not representative., ,Drop, 
08059400,"USCOE Sister Grove Ck nr Blue Ridge, TX",CrestStage,33.294557869999998,-96.483596899999995,215.228011000000009,33.294125980799997,-96.483233438799999,1292054,52.286372500699997,12030106000048,52.286372500699997,12,TX,1, , , , , , ,AutoRef, 
08042800,"W Fk Trinity Rv nr Jacksboro, TX",CrestStage,33.291779259999998,-98.080597900000001,1768.961872000000085,33.293440556400000,-98.079064479099998,1304795,96.065123388000004,12030101000076,96.065123388000004,12,TX,0,SEJ 8/17/17,Moved to GageLoc location. COMID 1304795.,MJS 10/26/2017,agree with move, , ,Move,1304669
08052700,"Little Elm Ck nr Aubrey, TX",ContGage,33.283449769999997,-96.892780500000001,195.544102000000009,33.283464567300001,-96.892780386400005,1278534,32.005488267700002,12030103000024,32.005488267700002,12,TX,1, , , , , , ,AutoRef, 
08042700,"North Ck nr Jacksboro, TX",CrestStage,33.282612499999999,-98.298381899999995,55.943742999999998,33.282504730699998,-98.298344527099999,1304807,33.282088462200001,12030101000119,33.282088462200001,12,TX,0,SEJ 9/6/17,Okay., , , , ,OK, 
08058500,"Honey Ck nr McKinney, TX",ContGage,33.278447980000003,-96.657770299999996,101.009535999999997,33.278491273199997,-96.657846414700003,1292258,48.915825949599999,12030106000075,48.915825949599999,12,TX,0,SEJ 9/6/17,Okay., , , , ,OK, 
08058900,"USCOE E Fk Trinity Rv at McKinney, TX",ContGage,33.244559700000003,-96.608601899999996,424.758047999999974,33.243521852699999,-96.608977610599993,1292088,92.692186146500006,12030106000061,92.692186146500006,12,TX,0,"SEJ 9/6/17 --> LH, 10/18/2017",Okay. [LH]. [SEJ - Moved to E Fk Trinity River COMID 1292252],MJS 10/26/2017,agree with move,"COMID_qa location appears correct (750 ft downstream from Honey Creek), not sure why COMID 1292252 is suggested or why reviewer agrees?", ,OK, 
08044000,"Big Sandy Ck nr Bridgeport, TX",CrestStage,33.231782180000003,-97.694753800000001,862.466037000000028,33.231815289600000,-97.694440559300006,1305635,85.078294142600001,12030101000255,85.078294142600001,12,TX,1, , ,MJS 10/30/2017,okay, , ,OK, 
08059000,"E Fk Trinity Rv nr McKinney, TX",ContGage,33.203727239999999,-96.595823999999993,492.097738999999990,33.203726163399999,-96.595805196699999,1292124,61.298065267799998,12030106000060,61.298065267799998,12,TX,1, , ,MJS 10/30/2017,okay, , ,OK, 
08043500,"W Fk Trinity Rv at Bridgeport, TX",CrestStage,33.201504600000000,-97.756144000000006,2970.716351000000031,33.201358931999998,-97.756289779599996,1306355,93.162442324799997,12030101000044,93.162442324799997,12,TX,1, , ,MJS 10/30/2017,okay, , ,OK, 
08059500,"Sister Grove Ck nr Princeton, TX",CrestStage,33.193171300000003,-96.475819299999998,292.668655000000001,33.193163054499998,-96.476161306199998,1292362,99.763916176799995,12030106000995,99.763916176799995,12,TX,1, , , , , , ,AutoRef, 
08017200,"Cowleech Fk Sabine Rv at Greenville, TX",ContGage,33.132893299999999,-96.076916400000002,209.789036000000010,33.132605630299999,-96.076916550999997,5253949,79.292436942099997,12010001000057,79.292436942099997,12,TX,1, , , , , , ,AutoRef, 
08053500,"Denton Ck nr Justin, TX",ContGage,33.119010029999998,-97.290573199999997,1035.995239999999967,33.118898792499998,-97.290595726500001,1285627,9.345056603120000,12030104000022,9.345056603120000,12,TX,1, , , , , , ,AutoRef, 
08044500,"W Fk Trinity Rv nr Boyd, TX",ContGage,33.085399170000002,-97.558636000000007,4467.729473000000326,33.085754416400000,-97.558657969199999,1305941,41.534433144799998,12030101000016,41.534433144799998,12,TX,1, , ,MJS 10/30/2017,okay, , ,OK, 
08053000,"Elm Fk Trinity Rv nr Lewisville, TX",ContGage,33.045677300000001,-96.961117299999998,4333.050091000000066,33.045441599199997,-96.961555212199997,1278624,96.123465194700003,12030103000019,96.123465194700003,12,TX,1, , , , , , ,AutoRef, 
08054000,"Denton Ck nr Roanoke, TX",CrestStage,33.040122799999999,-97.205014500000004,1608.382610000000113,33.040179246400001,-97.204976358899998,24597768,89.706291229800001,12030104000801,89.706291229800001,12,TX,1, , ,MJS 10/30/2017,okay, , ,OK, 
08061000,"E Fk Trinity Rv nr Lavon, TX",ContGage,33.023730659999998,-96.475542899999994,2002.060801000000083,33.023781670699996,-96.475653952100004,1292272,73.695658909299993,12030106000018,73.695658909299993,12,TX,1, , , , , , ,AutoRef, 
08055000,"Denton Ck nr Grapevine, TX",ContGage,32.987067699999997,-97.012785699999995,1825.941610999999966,32.986963300100001,-97.012856245600005,1287145,41.196913681100000,12030104000004,53.970761044900001,12,TX,1, , , , , , ,AutoRef, 
08055500,"Elm Fk Trinity Rv nr Carrollton, TX",ContGage,32.965957000000003,-96.944450000000003,6368.780738000000383,32.965953651299998,-96.944536144200001,1279694,82.756486609000007,12030103000011,82.756486609000007,12,TX,1, , , , , , ,AutoRef, 
08061540,"Rowlett Ck nr Sachse, TX",ContGage,32.959844470000000,-96.614437800000005,310.798571999999979,32.960060080600002,-96.614420986599995,1293010,98.543180394900006,12030106000094,98.543180394900006,12,TX,1, , , , , , ,AutoRef, 
08044800,"Walnut Ck at Reno, TX",CrestStage,32.945680350000004,-97.583079799999993,195.803100000000001,32.945688255599997,-97.583105668000002,1306815,11.296634924399999,12030101000187,11.296634924399999,12,TX,0,SEJ 9/6/17,Okay., , , , ,OK, 
08061500,"E Fk Trinity Rv nr Rockwall, TX",CrestStage,32.923733990000002,-96.505821900000001,2175.590004000000135,32.925200174399997,-96.498913279400000,1293222,85.531148484100001,12030106000979,85.531148484100001,12,TX,0,SEJ 9/6/17,Okay., , , , ,OK, 
08017300,"S Fk Sabine Rv nr Quinlan, TX",ContGage,32.897900849999999,-96.253311800000006,203.832063000000005,32.897898087700000,-96.253312348600005,5254557,92.801704079800004,12010001000087,92.801704079800004,12,TX,1, , , , , , ,AutoRef, 
08057200,"White Rk Ck at Greenville Ave, Dallas, TX",ContGage,32.889292070000003,-96.756666400000000,171.975210000000004,32.889152394100002,-96.756771373899994,1260353,73.304835105899997,12030105000054,73.304835105899997,12,TX,1, , , , , , ,AutoRef, 
